{
"type": "FeatureCollection",
"name": "Paraciclos",
"features": [
{ "type": "Feature", "properties": { "Name": "PARACICLO QUADRADO", "description": "descrição: TIPO: QUADRADO<br>VAGAS: <br>FASE: INTALADO<br>descrição:<br>TIPO: QUADRADO<br>VAGAS: 12<br>FASE: INTALADO", "timestamp": null, "begin": null, "end": null, "descricao": "TIPO: QUADRADO\nVAGAS: \nFASE: INTALADO\ndescrição:", "TIPO": "QUADRADO", "VAGAS": 12, "FASE": "INTALADO", "o": "<br>TIPO: QUADRADO" }, "geometry": { "type": "Point", "coordinates": [ -38.490624, -13.013247, 0.0 ] } },
{ "type": "Feature", "properties": { "Name": "Ponto 2", "description": "descrição: TIPO: QUADRADO<br>VAGAS: <br>FASE: INTALADO<br>descrição:<br>TIPO: QUADRADO<br>VAGAS: 12<br>FASE: INTALADO", "timestamp": null, "begin": null, "end": null, "descricao": "TIPO: QUADRADO\nVAGAS: \nFASE: INTALADO\ndescrição:", "TIPO": "QUADRADO", "VAGAS": 12, "FASE": "INTALADO", "o": "<br>TIPO: QUADRADO" }, "geometry": { "type": "Point", "coordinates": [ -38.4882994, -13.0138793, 0.0 ] } },
{ "type": "Feature", "properties": { "Name": "Ponto 3", "description": "descrição: TIPO: BRASKEN<br>VAGAS: 6<br>FASE: INTALADO<br>descrição:<br>TIPO: BRASKEN<br>VAGAS: 6<br>FASE: INTALADO", "timestamp": null, "begin": null, "end": null, "descricao": "TIPO: BRASKEN\nVAGAS: 6\nFASE: INTALADO\ndescrição:", "TIPO": "BRASKEN", "VAGAS": 6, "FASE": "INTALADO", "o": "<br>TIPO: BRASKEN" }, "geometry": { "type": "Point", "coordinates": [ -38.488624, -13.013336, 0.0 ] } },
{ "type": "Feature", "properties": { "Name": "Ponto 4", "description": "descrição: TIPO: BRASKEN<br>VAGAS: 6<br>FASE: INTALADO<br>descrição:<br>TIPO: BRASKEN<br>VAGAS: 6<br>FASE: INTALADO", "timestamp": null, "begin": null, "end": null, "descricao": "TIPO: BRASKEN\nVAGAS: 6\nFASE: INTALADO\ndescrição:", "TIPO": "BRASKEN", "VAGAS": 6, "FASE": "INTALADO", "o": "<br>TIPO: BRASKEN" }, "geometry": { "type": "Point", "coordinates": [ -38.488514, -13.01424, 0.0 ] } },
{ "type": "Feature", "properties": { "Name": "Ponto 5", "description": "descrição: TIPO: BRASKEN<br>VAGAS: 6<br>FASE: INTALADO<br>descrição:<br>TIPO: BRASKEN<br>VAGAS: 6<br>FASE: INTALADO", "timestamp": null, "begin": null, "end": null, "descricao": "TIPO: BRASKEN\nVAGAS: 6\nFASE: INTALADO\ndescrição:", "TIPO": "BRASKEN", "VAGAS": 6, "FASE": "INTALADO", "o": "<br>TIPO: BRASKEN" }, "geometry": { "type": "Point", "coordinates": [ -38.49383, -13.01119, 0.0 ] } },
{ "type": "Feature", "properties": { "Name": "Ponto 6", "description": "descrição: TIPO: BAIXO<br>VAGAS: 6<br>FASE: INTALADO<br>descrição:<br>TIPO: BAIXO<br>VAGAS: 2<br>FASE: INTALADO", "timestamp": null, "begin": null, "end": null, "descricao": "TIPO: BAIXO\nVAGAS: 6\nFASE: INTALADO\ndescrição:", "TIPO": "BAIXO", "VAGAS": 2, "FASE": "INTALADO", "o": "<br>TIPO: BAIXO" }, "geometry": { "type": "Point", "coordinates": [ -38.4780034, -13.0138733, 0.0 ] } },
{ "type": "Feature", "properties": { "Name": "Ponto 7", "description": "descrição: TIPO: REDONDO<br>VAGAS: <br>FASE: INTALADO<br>descrição:<br>TIPO: REDONDO<br>VAGAS: 10<br>FASE: INTALADO", "timestamp": null, "begin": null, "end": null, "descricao": "TIPO: REDONDO\nVAGAS: \nFASE: INTALADO\ndescrição:", "TIPO": "REDONDO", "VAGAS": 10, "FASE": "INTALADO", "o": "<br>TIPO: REDONDO" }, "geometry": { "type": "Point", "coordinates": [ -38.5120189, -12.9887385, 0.0 ] } },
{ "type": "Feature", "properties": { "Name": "Ponto 8", "description": "descrição: TIPO: BRASKEN<br>VAGAS: 6<br>FASE: INTALADO<br>descrição:<br>TIPO: BRASKEN<br>VAGAS: 6<br>FASE: INTALADO", "timestamp": null, "begin": null, "end": null, "descricao": "TIPO: BRASKEN\nVAGAS: 6\nFASE: INTALADO\ndescrição:", "TIPO": "BRASKEN", "VAGAS": 6, "FASE": "INTALADO", "o": "<br>TIPO: BRASKEN" }, "geometry": { "type": "Point", "coordinates": [ -38.523214, -13.004483, 0.0 ] } },
{ "type": "Feature", "properties": { "Name": "Ponto 9", "description": "descrição: TIPO: BRASKEN<br>VAGAS: <br>FASE: INTALADO<br>descrição:<br>TIPO: BRASKEN<br>VAGAS: 6<br>FASE: INTALADO", "timestamp": null, "begin": null, "end": null, "descricao": "TIPO: BRASKEN\nVAGAS: \nFASE: INTALADO\ndescrição:", "TIPO": "BRASKEN", "VAGAS": 6, "FASE": "INTALADO", "o": "<br>TIPO: BRASKEN" }, "geometry": { "type": "Point", "coordinates": [ -38.505744, -13.000089, 0.0 ] } },
{ "type": "Feature", "properties": { "Name": "Ponto 11", "description": "descrição: <br>TIPO: BRASKEN<br>VAGAS: 12<br>FASE: ", "timestamp": null, "begin": null, "end": null, "descricao": null, "TIPO": "BRASKEN", "VAGAS": 12, "FASE": null, "o": null }, "geometry": { "type": "Point", "coordinates": [ -38.5042477, -12.9812241, 0.0 ] } },
{ "type": "Feature", "properties": { "Name": "Ponto 12", "description": "descrição: <br>TIPO: PARTICULAR<br>VAGAS: 4<br>FASE: ", "timestamp": null, "begin": null, "end": null, "descricao": null, "TIPO": "PARTICULAR", "VAGAS": 4, "FASE": null, "o": null }, "geometry": { "type": "Point", "coordinates": [ -38.489466, -13.0125913, 0.0 ] } },
{ "type": "Feature", "properties": { "Name": "Ponto 13", "description": "descrição: <br>TIPO: PARTICULAR<br>VAGAS: 8<br>FASE: ", "timestamp": null, "begin": null, "end": null, "descricao": null, "TIPO": "PARTICULAR", "VAGAS": 8, "FASE": null, "o": null }, "geometry": { "type": "Point", "coordinates": [ -38.4627298, -13.0061728, 0.0 ] } },
{ "type": "Feature", "properties": { "Name": "Ponto 14", "description": "descrição: <br>TIPO: BRASKEN<br>VAGAS: 8<br>FASE: ", "timestamp": null, "begin": null, "end": null, "descricao": null, "TIPO": "BRASKEN", "VAGAS": 8, "FASE": null, "o": null }, "geometry": { "type": "Point", "coordinates": [ -38.4713396, -12.9950591, 0.0 ] } },
{ "type": "Feature", "properties": { "Name": "Ponto 15", "description": "descrição: <br>TIPO: BRASKEN<br>VAGAS: 12<br>FASE: ", "timestamp": null, "begin": null, "end": null, "descricao": null, "TIPO": "BRASKEN", "VAGAS": 12, "FASE": null, "o": null }, "geometry": { "type": "Point", "coordinates": [ -38.4705739, -12.9964717, 0.0 ] } },
{ "type": "Feature", "properties": { "Name": "Ponto 16", "description": "descrição: <br>TIPO: BRASKEN<br>VAGAS: 6<br>FASE: ", "timestamp": null, "begin": null, "end": null, "descricao": null, "TIPO": "BRASKEN", "VAGAS": 6, "FASE": null, "o": null }, "geometry": { "type": "Point", "coordinates": [ -38.4912953, -13.0129467, 0.0 ] } },
{ "type": "Feature", "properties": { "Name": "Ponto 16", "description": "descrição: <br>TIPO: BRASKEN<br>VAGAS: 6<br>FASE: ", "timestamp": null, "begin": null, "end": null, "descricao": null, "TIPO": "BRASKEN", "VAGAS": 6, "FASE": null, "o": null }, "geometry": { "type": "Point", "coordinates": [ -38.4345585, -12.9691121, 0.0 ] } },
{ "type": "Feature", "properties": { "Name": "Ponto 17", "description": "descrição: <br>TIPO: BRASKEN<br>VAGAS: 6<br>FASE: ", "timestamp": null, "begin": null, "end": null, "descricao": null, "TIPO": "BRASKEN", "VAGAS": 6, "FASE": null, "o": null }, "geometry": { "type": "Point", "coordinates": [ -38.4315759, -12.9690389, 0.0 ] } },
{ "type": "Feature", "properties": { "Name": "Viva o Grão", "description": "descrição: <br>TIPO: PARTICULAR<br>VAGAS: 6<br>FASE: ", "timestamp": null, "begin": null, "end": null, "descricao": null, "TIPO": "PARTICULAR", "VAGAS": 6, "FASE": null, "o": null }, "geometry": { "type": "Point", "coordinates": [ -38.5273112, -12.9959142, 0.0 ] } },
{ "type": "Feature", "properties": { "Name": "Supermercado Dia", "description": "descrição: <br>TIPO: PARTICULAR<br>VAGAS: 6<br>FASE: ", "timestamp": null, "begin": null, "end": null, "descricao": null, "TIPO": "PARTICULAR", "VAGAS": 6, "FASE": null, "o": null }, "geometry": { "type": "Point", "coordinates": [ -38.526267, -12.9956009, 0.0 ] } },
{ "type": "Feature", "properties": { "Name": "Ponto 20", "description": "descrição: <br>TIPO: AREDONDADO<br>VAGAS: 10<br>FASE: ", "timestamp": null, "begin": null, "end": null, "descricao": null, "TIPO": "AREDONDADO", "VAGAS": 10, "FASE": null, "o": null }, "geometry": { "type": "Point", "coordinates": [ -38.3658055, -12.9502319, 0.0 ] } },
{ "type": "Feature", "properties": { "Name": "Ponto 21", "description": "descrição: <br>TIPO: BRASKEN<br>VAGAS: 10<br>FASE: ", "timestamp": null, "begin": null, "end": null, "descricao": null, "TIPO": "BRASKEN", "VAGAS": 10, "FASE": null, "o": null }, "geometry": { "type": "Point", "coordinates": [ -38.3736513, -12.9517571, 0.0 ] } },
{ "type": "Feature", "properties": { "Name": "Ponto 22", "description": "descrição: <br>TIPO: BRASKEN<br>VAGAS: 6<br>FASE: ", "timestamp": null, "begin": null, "end": null, "descricao": null, "TIPO": "BRASKEN", "VAGAS": 6, "FASE": null, "o": null }, "geometry": { "type": "Point", "coordinates": [ -38.3869783, -12.9559732, 0.0 ] } },
{ "type": "Feature", "properties": { "Name": "Ponto 23", "description": "descrição: <br>TIPO: BICICLETA<br>VAGAS: 10<br>FASE: ", "timestamp": null, "begin": null, "end": null, "descricao": null, "TIPO": "BICICLETA", "VAGAS": 10, "FASE": null, "o": null }, "geometry": { "type": "Point", "coordinates": [ -38.4241261, -12.9779174, 0.0 ] } },
{ "type": "Feature", "properties": { "Name": "Ponto 24", "description": "descrição: <br>TIPO: REDONDO<br>VAGAS: 10<br>FASE: ", "timestamp": null, "begin": null, "end": null, "descricao": null, "TIPO": "REDONDO", "VAGAS": 10, "FASE": null, "o": null }, "geometry": { "type": "Point", "coordinates": [ -38.533199, -13.0043762, 0.0 ] } },
{ "type": "Feature", "properties": { "Name": "Ponto 25", "description": "descrição: <br>TIPO: BRASKEN<br>VAGAS: 6<br>FASE: ", "timestamp": null, "begin": null, "end": null, "descricao": null, "TIPO": "BRASKEN", "VAGAS": 6, "FASE": null, "o": null }, "geometry": { "type": "Point", "coordinates": [ -38.3409775, -12.9392037, 0.0 ] } },
{ "type": "Feature", "properties": { "Name": "Ponto 26", "description": "descrição: <br>TIPO: BRASEKEN<br>VAGAS: 6<br>FASE: ", "timestamp": null, "begin": null, "end": null, "descricao": null, "TIPO": "BRASEKEN", "VAGAS": 6, "FASE": null, "o": null }, "geometry": { "type": "Point", "coordinates": [ -38.3661917, -12.949859, 0.0 ] } },
{ "type": "Feature", "properties": { "Name": "Ponto 27", "description": "descrição: <br>TIPO: BRASKEN<br>VAGAS: 6<br>FASE: ", "timestamp": null, "begin": null, "end": null, "descricao": null, "TIPO": "BRASKEN", "VAGAS": 6, "FASE": null, "o": null }, "geometry": { "type": "Point", "coordinates": [ -38.3529722, -12.9549106, 0.0 ] } },
{ "type": "Feature", "properties": { "Name": "Ponto 25", "description": "descrição: <br>TIPO: BRASKEN<br>VAGAS: 6<br>FASE: ", "timestamp": null, "begin": null, "end": null, "descricao": null, "TIPO": "BRASKEN", "VAGAS": 6, "FASE": null, "o": null }, "geometry": { "type": "Point", "coordinates": [ -38.3648067, -12.9498036, 0.0 ] } },
{ "type": "Feature", "properties": { "Name": "Ponto 29", "description": "descrição: <br>TIPO: BRASKEN<br>VAGAS: 10<br>FASE: ", "timestamp": null, "begin": null, "end": null, "descricao": null, "TIPO": "BRASKEN", "VAGAS": 10, "FASE": null, "o": null }, "geometry": { "type": "Point", "coordinates": [ -38.4218455, -12.9766932, 0.0 ] } },
{ "type": "Feature", "properties": { "Name": "Ponto 30", "description": "descrição: <br>TIPO: BRASKEN<br>VAGAS: 10<br>FASE: ", "timestamp": null, "begin": null, "end": null, "descricao": null, "TIPO": "BRASKEN", "VAGAS": 10, "FASE": null, "o": null }, "geometry": { "type": "Point", "coordinates": [ -38.4427352, -12.9971486, 0.0 ] } },
{ "type": "Feature", "properties": { "Name": "Ponto 31", "description": "descrição: <br>TIPO: BRASKEN<br>VAGAS: 6<br>FASE: ", "timestamp": null, "begin": null, "end": null, "descricao": null, "TIPO": "BRASKEN", "VAGAS": 6, "FASE": null, "o": null }, "geometry": { "type": "Point", "coordinates": [ -38.4402941, -12.9941476, 0.0 ] } },
{ "type": "Feature", "properties": { "Name": "Ponto 32", "description": "descrição: <br>TIPO: BRASKEN<br>VAGAS: 8<br>FASE: ", "timestamp": null, "begin": null, "end": null, "descricao": null, "TIPO": "BRASKEN", "VAGAS": 8, "FASE": null, "o": null }, "geometry": { "type": "Point", "coordinates": [ -38.4527277, -12.9866049, 0.0 ] } },
{ "type": "Feature", "properties": { "Name": "Ponto 33", "description": "descrição: <br>TIPO: BRASKEN<br>VAGAS: 4<br>FASE: ", "timestamp": null, "begin": null, "end": null, "descricao": null, "TIPO": "BRASKEN", "VAGAS": 4, "FASE": null, "o": null }, "geometry": { "type": "Point", "coordinates": [ -38.4524328, -12.9869777, 0.0 ] } },
{ "type": "Feature", "properties": { "Name": "Ponto 34", "description": "descrição: <br>TIPO: BRASKEN<br>VAGAS: 18<br>FASE: ", "timestamp": null, "begin": null, "end": null, "descricao": null, "TIPO": "BRASKEN", "VAGAS": 18, "FASE": null, "o": null }, "geometry": { "type": "Point", "coordinates": [ -38.45157, -13.0033304, 0.0 ] } },
{ "type": "Feature", "properties": { "Name": "Ponto 35", "description": "descrição: <br>TIPO: BRASKEN<br>VAGAS: 6<br>FASE: ", "timestamp": null, "begin": null, "end": null, "descricao": null, "TIPO": "BRASKEN", "VAGAS": 6, "FASE": null, "o": null }, "geometry": { "type": "Point", "coordinates": [ -38.4594623, -13.0043488, 0.0 ] } },
{ "type": "Feature", "properties": { "Name": "Ponto 36", "description": "descrição: <br>TIPO: BRASKEN<br>VAGAS: 6<br>FASE: ", "timestamp": null, "begin": null, "end": null, "descricao": null, "TIPO": "BRASKEN", "VAGAS": 6, "FASE": null, "o": null }, "geometry": { "type": "Point", "coordinates": [ -38.4502026, -12.9915978, 0.0 ] } },
{ "type": "Feature", "properties": { "Name": "Ponto 37", "description": "descrição: VISTORIAR<br>TIPO: BRASKEN<br>VAGAS: 6<br>FASE: ", "timestamp": null, "begin": null, "end": null, "descricao": "VISTORIAR", "TIPO": "BRASKEN", "VAGAS": 6, "FASE": null, "o": "VISTORIAR" }, "geometry": { "type": "Point", "coordinates": [ -38.4583012, -12.9788012, 0.0 ] } },
{ "type": "Feature", "properties": { "Name": "Ponto 38", "description": "descrição: <br>TIPO: BRASKEN<br>VAGAS: 6<br>FASE: ", "timestamp": null, "begin": null, "end": null, "descricao": null, "TIPO": "BRASKEN", "VAGAS": 6, "FASE": null, "o": null }, "geometry": { "type": "Point", "coordinates": [ -38.4478053, -12.9869463, 0.0 ] } },
{ "type": "Feature", "properties": { "Name": "Ponto 39", "description": "descrição: <br>TIPO: BRASKEN<br>VAGAS: 26<br>FASE: ", "timestamp": null, "begin": null, "end": null, "descricao": null, "TIPO": "BRASKEN", "VAGAS": 26, "FASE": null, "o": null }, "geometry": { "type": "Point", "coordinates": [ -38.4734524, -12.9966648, 0.0 ] } },
{ "type": "Feature", "properties": { "Name": "Ponto 40", "description": "descrição: <br>TIPO: BRASKEN<br>VAGAS: 6<br>FASE: ", "timestamp": null, "begin": null, "end": null, "descricao": null, "TIPO": "BRASKEN", "VAGAS": 6, "FASE": null, "o": null }, "geometry": { "type": "Point", "coordinates": [ -38.5235377, -13.0102568, 0.0 ] } },
{ "type": "Feature", "properties": { "Name": "Ponto 41", "description": "descrição: <br>TIPO: BRASKEN<br>VAGAS: 6<br>FASE: ", "timestamp": null, "begin": null, "end": null, "descricao": null, "TIPO": "BRASKEN", "VAGAS": 6, "FASE": null, "o": null }, "geometry": { "type": "Point", "coordinates": [ -38.5024966, -12.9725046, 0.0 ] } },
{ "type": "Feature", "properties": { "Name": "Ponto 42", "description": "descrição: <br>TIPO: BRASKEN<br>VAGAS: 6<br>FASE: ", "timestamp": null, "begin": null, "end": null, "descricao": null, "TIPO": "BRASKEN", "VAGAS": 6, "FASE": null, "o": null }, "geometry": { "type": "Point", "coordinates": [ -38.5132502, -12.9756391, 0.0 ] } },
{ "type": "Feature", "properties": { "Name": "Ponto 43", "description": "descrição: <br>TIPO: BRASKEN<br>VAGAS: 6<br>FASE: ", "timestamp": null, "begin": null, "end": null, "descricao": null, "TIPO": "BRASKEN", "VAGAS": 6, "FASE": null, "o": null }, "geometry": { "type": "Point", "coordinates": [ -38.5145136, -12.9812019, 0.0 ] } },
{ "type": "Feature", "properties": { "Name": "Ponto 44", "description": "descrição: <br>TIPO: BRASKEN<br>VAGAS: 6<br>FASE: ", "timestamp": null, "begin": null, "end": null, "descricao": null, "TIPO": "BRASKEN", "VAGAS": 6, "FASE": null, "o": null }, "geometry": { "type": "Point", "coordinates": [ -38.4990813, -12.9575359, 0.0 ] } },
{ "type": "Feature", "properties": { "Name": "Ponto 45", "description": "descrição: <br>TIPO: BRASKEN<br>VAGAS: 6<br>FASE: ", "timestamp": null, "begin": null, "end": null, "descricao": null, "TIPO": "BRASKEN", "VAGAS": 6, "FASE": null, "o": null }, "geometry": { "type": "Point", "coordinates": [ -38.4941983, -12.9125288, 0.0 ] } },
{ "type": "Feature", "properties": { "Name": "Ponto 46", "description": "descrição: <br>TIPO: BRASKEN<br>VAGAS: 6<br>FASE: ", "timestamp": null, "begin": null, "end": null, "descricao": null, "TIPO": "BRASKEN", "VAGAS": 6, "FASE": null, "o": null }, "geometry": { "type": "Point", "coordinates": [ -38.498109, -12.9137768, 0.0 ] } },
{ "type": "Feature", "properties": { "Name": "Ponto 47", "description": "descrição: <br>TIPO: BRASKEN<br>VAGAS: 6<br>FASE: ", "timestamp": null, "begin": null, "end": null, "descricao": null, "TIPO": "BRASKEN", "VAGAS": 6, "FASE": null, "o": null }, "geometry": { "type": "Point", "coordinates": [ -38.5057393, -12.9220395, 0.0 ] } },
{ "type": "Feature", "properties": { "Name": "Ponto 48", "description": "descrição: <br>TIPO: BRASKEN<br>VAGAS: 6<br>FASE: ", "timestamp": null, "begin": null, "end": null, "descricao": null, "TIPO": "BRASKEN", "VAGAS": 6, "FASE": null, "o": null }, "geometry": { "type": "Point", "coordinates": [ -38.4760962, -12.8650864, 0.0 ] } },
{ "type": "Feature", "properties": { "Name": "Ponto 49", "description": "descrição: <br>TIPO: BRASKEN<br>VAGAS: 6<br>FASE: ", "timestamp": null, "begin": null, "end": null, "descricao": null, "TIPO": "BRASKEN", "VAGAS": 6, "FASE": null, "o": null }, "geometry": { "type": "Point", "coordinates": [ -38.4764624, -12.8643947, 0.0 ] } },
{ "type": "Feature", "properties": { "Name": "Ponto 50", "description": "descrição: <br>TIPO: BRASKEN<br>VAGAS: 6<br>FASE: ", "timestamp": null, "begin": null, "end": null, "descricao": null, "TIPO": "BRASKEN", "VAGAS": 6, "FASE": null, "o": null }, "geometry": { "type": "Point", "coordinates": [ -38.48594, -12.8232187, 0.0 ] } },
{ "type": "Feature", "properties": { "Name": "Ponto 51", "description": "descrição: <br>TIPO: BRASKEN<br>VAGAS: 6<br>FASE: ", "timestamp": null, "begin": null, "end": null, "descricao": null, "TIPO": "BRASKEN", "VAGAS": 6, "FASE": null, "o": null }, "geometry": { "type": "Point", "coordinates": [ -38.4703582, -12.8402785, 0.0 ] } },
{ "type": "Feature", "properties": { "Name": "Ponto 52", "description": "descrição: <br>TIPO: BRASKEN<br>VAGAS: 8<br>FASE: ", "timestamp": null, "begin": null, "end": null, "descricao": null, "TIPO": "BRASKEN", "VAGAS": 8, "FASE": null, "o": null }, "geometry": { "type": "Point", "coordinates": [ -38.5000662, -12.9555762, 0.0 ] } },
{ "type": "Feature", "properties": { "Name": "Ponto 53", "description": "descrição: <br>TIPO: BRASKEN<br>VAGAS: 6<br>FASE: ", "timestamp": null, "begin": null, "end": null, "descricao": null, "TIPO": "BRASKEN", "VAGAS": 6, "FASE": null, "o": null }, "geometry": { "type": "Point", "coordinates": [ -38.5132657, -12.9871857, 0.0 ] } },
{ "type": "Feature", "properties": { "Name": "Ponto 54", "description": "descrição: <br>TIPO: BRASKEN<br>VAGAS: 12<br>FASE: ", "timestamp": null, "begin": null, "end": null, "descricao": null, "TIPO": "BRASKEN", "VAGAS": 12, "FASE": null, "o": null }, "geometry": { "type": "Point", "coordinates": [ -38.5140617, -12.9773872, 0.0 ] } },
{ "type": "Feature", "properties": { "Name": "Ponto 55", "description": "descrição: <br>TIPO: BRASKEN<br>VAGAS: 18<br>FASE: ", "timestamp": null, "begin": null, "end": null, "descricao": null, "TIPO": "BRASKEN", "VAGAS": 18, "FASE": null, "o": null }, "geometry": { "type": "Point", "coordinates": [ -38.5301349, -13.0000263, 0.0 ] } },
{ "type": "Feature", "properties": { "Name": "Salvador Shopping", "description": "descrição: <br>TIPO: BRASKEN<br>VAGAS: 18<br>FASE: ", "timestamp": null, "begin": null, "end": null, "descricao": null, "TIPO": "BRASKEN", "VAGAS": 18, "FASE": null, "o": null }, "geometry": { "type": "Point", "coordinates": [ -38.4551153, -12.9785741, 0.0 ] } },
{ "type": "Feature", "properties": { "Name": "Ponto 56", "description": "descrição: <br>TIPO: BRASKEN<br>VAGAS: 6<br>FASE: ", "timestamp": null, "begin": null, "end": null, "descricao": null, "TIPO": "BRASKEN", "VAGAS": 6, "FASE": null, "o": null }, "geometry": { "type": "Point", "coordinates": [ -38.5020398, -12.9978944, 0.0 ] } },
{ "type": "Feature", "properties": { "Name": "Fim De Linha Vila Canária", "description": "descrição: <br>TIPO: BRASKEN<br>VAGAS: 6<br>FASE: ", "timestamp": null, "begin": null, "end": null, "descricao": null, "TIPO": "BRASKEN", "VAGAS": 6, "FASE": null, "o": null }, "geometry": { "type": "Point", "coordinates": [ -38.4374572, -12.9106648, 0.0 ] } },
{ "type": "Feature", "properties": { "Name": "Ponto 57", "description": "descrição: <br>TIPO: BRASKEN<br>VAGAS: 6<br>FASE: ", "timestamp": null, "begin": null, "end": null, "descricao": null, "TIPO": "BRASKEN", "VAGAS": 6, "FASE": null, "o": null }, "geometry": { "type": "Point", "coordinates": [ -38.4335983, -12.9799823, 0.0 ] } },
{ "type": "Feature", "properties": { "Name": "Ponto 58", "description": "descrição: <br>TIPO: REDONDO<br>VAGAS: 6<br>FASE: ", "timestamp": null, "begin": null, "end": null, "descricao": null, "TIPO": "REDONDO", "VAGAS": 6, "FASE": null, "o": null }, "geometry": { "type": "Point", "coordinates": [ -38.4335015, -12.9281445, 0.0 ] } },
{ "type": "Feature", "properties": { "Name": "Ponto 59", "description": "descrição: <br>TIPO: BRASKEN<br>VAGAS: 12<br>FASE: ", "timestamp": null, "begin": null, "end": null, "descricao": null, "TIPO": "BRASKEN", "VAGAS": 12, "FASE": null, "o": null }, "geometry": { "type": "Point", "coordinates": [ -38.5036592, -12.9631075, 0.0 ] } },
{ "type": "Feature", "properties": { "Name": "Ponto 60", "description": "descrição: <br>TIPO: BRASKEN<br>VAGAS: 10<br>FASE: ", "timestamp": null, "begin": null, "end": null, "descricao": null, "TIPO": "BRASKEN", "VAGAS": 10, "FASE": null, "o": null }, "geometry": { "type": "Point", "coordinates": [ -38.4969973, -12.9891691, 0.0 ] } },
{ "type": "Feature", "properties": { "Name": "SEMOB - Secretaria Municipal De Mobilidade", "description": "descrição: <br>TIPO: BRASKEN<br>VAGAS: 10<br>FASE: ", "timestamp": null, "begin": null, "end": null, "descricao": null, "TIPO": "BRASKEN", "VAGAS": 10, "FASE": null, "o": null }, "geometry": { "type": "Point", "coordinates": [ -38.4718821, -13.0129554, 0.0 ] } },
{ "type": "Feature", "properties": { "Name": "Centro de Operações e Inteligência da Segurança Pública", "description": "descrição: <br>TIPO: BRASKEN<br>VAGAS: 6<br>FASE: ", "timestamp": null, "begin": null, "end": null, "descricao": null, "TIPO": "BRASKEN", "VAGAS": 6, "FASE": null, "o": null }, "geometry": { "type": "Point", "coordinates": [ -38.4258101, -12.9440694, 0.0 ] } },
{ "type": "Feature", "properties": { "Name": "Ponto 61", "description": "descrição: <br>TIPO: BRASKEN<br>VAGAS: 6<br>FASE: ", "timestamp": null, "begin": null, "end": null, "descricao": null, "TIPO": "BRASKEN", "VAGAS": 6, "FASE": null, "o": null }, "geometry": { "type": "Point", "coordinates": [ -38.4505915, -12.9002696, 0.0 ] } },
{ "type": "Feature", "properties": { "Name": "Ponto 66", "description": "descrição: <br>TIPO: Quadrado<br>VAGAS: 12<br>FASE: ", "timestamp": null, "begin": null, "end": null, "descricao": null, "TIPO": "Quadrado", "VAGAS": 12, "FASE": null, "o": null }, "geometry": { "type": "Point", "coordinates": [ -38.4857713, -13.0131198, 0.0 ] } },
{ "type": "Feature", "properties": { "Name": "Ponto 67", "description": "descrição: <br>TIPO: Baixo<br>VAGAS: 10<br>FASE: ", "timestamp": null, "begin": null, "end": null, "descricao": null, "TIPO": "Baixo", "VAGAS": 10, "FASE": null, "o": null }, "geometry": { "type": "Point", "coordinates": [ -38.4817972, -12.9806308, 0.0 ] } },
{ "type": "Feature", "properties": { "Name": "Ponto 68", "description": "descrição: <br>TIPO: Quadrado<br>VAGAS: 12<br>FASE: ", "timestamp": null, "begin": null, "end": null, "descricao": null, "TIPO": "Quadrado", "VAGAS": 12, "FASE": null, "o": null }, "geometry": { "type": "Point", "coordinates": [ -38.4918797, -13.0124723, 0.0 ] } },
{ "type": "Feature", "properties": { "Name": "Ponto 69", "description": "descrição: <br>TIPO: Baixo<br>VAGAS: 10<br>FASE: ", "timestamp": null, "begin": null, "end": null, "descricao": null, "TIPO": "Baixo", "VAGAS": 10, "FASE": null, "o": null }, "geometry": { "type": "Point", "coordinates": [ -38.4871536, -12.9841359, 0.0 ] } },
{ "type": "Feature", "properties": { "Name": "Ponto 70", "description": "descrição: <br>TIPO: BRASKEN<br>VAGAS: 18<br>FASE: ", "timestamp": null, "begin": null, "end": null, "descricao": null, "TIPO": "BRASKEN", "VAGAS": 18, "FASE": null, "o": null }, "geometry": { "type": "Point", "coordinates": [ -38.4910991, -13.0124874, 0.0 ] } },
{ "type": "Feature", "properties": { "Name": "Ponto 71", "description": "descrição: <br>TIPO: BRASKEN<br>VAGAS: 6<br>FASE: ", "timestamp": null, "begin": null, "end": null, "descricao": null, "TIPO": "BRASKEN", "VAGAS": 6, "FASE": null, "o": null }, "geometry": { "type": "Point", "coordinates": [ -38.4884484, -13.0152353, 0.0 ] } },
{ "type": "Feature", "properties": { "Name": "Ponto 72", "description": "descrição: <br>TIPO: AREDONDADO<br>VAGAS: 10<br>FASE: ", "timestamp": null, "begin": null, "end": null, "descricao": null, "TIPO": "AREDONDADO", "VAGAS": 10, "FASE": null, "o": null }, "geometry": { "type": "Point", "coordinates": [ -38.3630727, -12.9505551, 0.0 ] } },
{ "type": "Feature", "properties": { "Name": "Ponto 73", "description": "descrição: <br>TIPO: AREDONDADO<br>VAGAS: 10<br>FASE: ", "timestamp": null, "begin": null, "end": null, "descricao": null, "TIPO": "AREDONDADO", "VAGAS": 10, "FASE": null, "o": null }, "geometry": { "type": "Point", "coordinates": [ -38.3639692, -12.950277, 0.0 ] } },
{ "type": "Feature", "properties": { "Name": "ÁREA1 | Wyden", "description": "descrição: <br>TIPO: PRIVADO<br>VAGAS: 10<br>FASE: ", "timestamp": null, "begin": null, "end": null, "descricao": null, "TIPO": "PRIVADO", "VAGAS": 10, "FASE": null, "o": null }, "geometry": { "type": "Point", "coordinates": [ -38.4317704, -12.9606495, 0.0 ] } },
{ "type": "Feature", "properties": { "Name": "selfit", "description": "descrição: <br>TIPO: <br>VAGAS: 10<br>FASE: ", "timestamp": null, "begin": null, "end": null, "descricao": null, "TIPO": null, "VAGAS": 10, "FASE": null, "o": null }, "geometry": { "type": "Point", "coordinates": [ -38.4488916, -12.992786, 0.0 ] } },
{ "type": "Feature", "properties": { "Name": "atacarejo piatã", "description": "descrição: <br>TIPO: <br>VAGAS: 10<br>FASE: ", "timestamp": null, "begin": null, "end": null, "descricao": null, "TIPO": null, "VAGAS": 10, "FASE": null, "o": null }, "geometry": { "type": "Point", "coordinates": [ -38.3788705, -12.952991, 0.0 ] } },
{ "type": "Feature", "properties": { "Name": "Estação Ferroviária - Escada", "description": "descrição: <br>TIPO: <br>VAGAS: 14<br>FASE: ", "timestamp": null, "begin": null, "end": null, "descricao": null, "TIPO": null, "VAGAS": 14, "FASE": null, "o": null }, "geometry": { "type": "Point", "coordinates": [ -38.4836952, -12.8821555, 0.0 ] } },
{ "type": "Feature", "properties": { "Name": "Ponto 77", "description": "descrição: <br>TIPO: REDONDO<br>VAGAS: 6<br>FASE: ", "timestamp": null, "begin": null, "end": null, "descricao": null, "TIPO": "REDONDO", "VAGAS": 6, "FASE": null, "o": null }, "geometry": { "type": "Point", "coordinates": [ -38.5150291, -12.9836097, 0.0 ] } },
{ "type": "Feature", "properties": { "Name": "Shopping Bela Vista", "description": "descrição: <br>TIPO: PARTICULAR<br>VAGAS: 10<br>FASE: ", "timestamp": null, "begin": null, "end": null, "descricao": null, "TIPO": "PARTICULAR", "VAGAS": 10, "FASE": null, "o": null }, "geometry": { "type": "Point", "coordinates": [ -38.474947, -12.9705184, 0.0 ] } },
{ "type": "Feature", "properties": { "Name": "Ponto 80", "description": "descrição: <br>TIPO: BRASKEN<br>VAGAS: 8<br>FASE: ", "timestamp": null, "begin": null, "end": null, "descricao": null, "TIPO": "BRASKEN", "VAGAS": 8, "FASE": null, "o": null }, "geometry": { "type": "Point", "coordinates": [ -38.4785277, -12.9343432, 0.0 ] } },
{ "type": "Feature", "properties": { "Name": "Ponto 81", "description": "descrição: <br>TIPO: QUADRADO<br>VAGAS: 12<br>FASE: ", "timestamp": null, "begin": null, "end": null, "descricao": null, "TIPO": "QUADRADO", "VAGAS": 12, "FASE": null, "o": null }, "geometry": { "type": "Point", "coordinates": [ -38.4931343, -13.0113385, 0.0 ] } },
{ "type": "Feature", "properties": { "Name": "Ponto 82", "description": "descrição: <br>TIPO: REDONDO<br>VAGAS: 10<br>FASE: ", "timestamp": null, "begin": null, "end": null, "descricao": null, "TIPO": "REDONDO", "VAGAS": 10, "FASE": null, "o": null }, "geometry": { "type": "Point", "coordinates": [ -38.4562426, -13.0062674, 0.0 ] } },
{ "type": "Feature", "properties": { "Name": "Ponto 83", "description": "descrição: <br>TIPO: BAIXO<br>VAGAS: 10<br>FASE: ", "timestamp": null, "begin": null, "end": null, "descricao": null, "TIPO": "BAIXO", "VAGAS": 10, "FASE": null, "o": null }, "geometry": { "type": "Point", "coordinates": [ -38.4762056, -12.8362834, 0.0 ] } },
{ "type": "Feature", "properties": { "Name": "Ponto 84", "description": "descrição: <br>TIPO: BAIXO<br>VAGAS: 10<br>FASE: ", "timestamp": null, "begin": null, "end": null, "descricao": null, "TIPO": "BAIXO", "VAGAS": 10, "FASE": null, "o": null }, "geometry": { "type": "Point", "coordinates": [ -38.4822148, -12.8317129, 0.0 ] } },
{ "type": "Feature", "properties": { "Name": "Terminal Marítimo de São Tomé de Paripe", "description": "descrição: <br>TIPO: BAIXO<br>VAGAS: 5<br>FASE: ", "timestamp": null, "begin": null, "end": null, "descricao": null, "TIPO": "BAIXO", "VAGAS": 5, "FASE": null, "o": null }, "geometry": { "type": "Point", "coordinates": [ -38.4881378, -12.8142277, 0.0 ] } }
]
}
