{
"type": "FeatureCollection",
"name": "Problemas",
"features": [
{ "type": "Feature", "properties": { "Name": "Posto de Gasolina", "description": "Entrada e saída intensa de veiculos do cond. españa e do posto", "timestamp": null, "begin": null, "end": null }, "geometry": { "type": "LineString", "coordinates": [ [ -38.5195161, -13.0080453, 0.0 ], [ -38.5193941, -13.0079891, 0.0 ], [ -38.5193096, -13.0079565, 0.0 ], [ -38.5191795, -13.0079238, 0.0 ], [ -38.5190883, -13.0079029, 0.0 ], [ -38.5189971, -13.0078924, 0.0 ], [ -38.5189596, -13.0078996, 0.0 ], [ -38.5188925, -13.0079264, 0.0 ] ] } },
{ "type": "Feature", "properties": { "Name": "táxi", "description": null, "timestamp": null, "begin": null, "end": null }, "geometry": { "type": "LineString", "coordinates": [ [ -38.5176346, -12.9853301, 0.0 ], [ -38.5175487, -12.9853275, 0.0 ], [ -38.5174629, -12.9853196, 0.0 ], [ -38.5173744, -12.9853327, 0.0 ], [ -38.5173476, -12.9853353, 0.0 ], [ -38.5172644, -12.9853118, 0.0 ], [ -38.517184, -12.9852909, 0.0 ], [ -38.5171115, -12.9852857, 0.0 ], [ -38.517074, -12.9852752, 0.0 ], [ -38.5170445, -12.9853013, 0.0 ] ] } },
{ "type": "Feature", "properties": { "Name": "Táxi", "description": null, "timestamp": null, "begin": null, "end": null }, "geometry": { "type": "LineString", "coordinates": [ [ -38.5105871, -12.9854725, 0.0 ], [ -38.5110551, -12.9868486, 0.0 ] ] } },
{ "type": "Feature", "properties": { "Name": "Buracos", "description": "Calçada quebrada", "timestamp": null, "begin": null, "end": null }, "geometry": { "type": "LineString", "coordinates": [ [ -38.4730335, -13.0137084, 0.0 ], [ -38.4730214, -13.0137084, 0.0 ], [ -38.4729503, -13.0137189, 0.0 ], [ -38.4728658, -13.0137489, 0.0 ], [ -38.4727773, -13.0137829, 0.0 ], [ -38.4726419, -13.0138326, 0.0 ], [ -38.4723938, -13.0139058, 0.0 ] ] } },
{ "type": "Feature", "properties": { "Name": "Incompleto", "description": null, "timestamp": null, "begin": null, "end": null }, "geometry": { "type": "LineString", "coordinates": [ [ -38.4617427, -13.0088352, 0.0 ], [ -38.4613156, -13.0086425, 0.0 ] ] } },
{ "type": "Feature", "properties": { "Name": "Incompleto", "description": null, "timestamp": null, "begin": null, "end": null }, "geometry": { "type": "LineString", "coordinates": [ [ -38.4587111, -13.0064518, 0.0 ], [ -38.4584731, -13.0063283, 0.0 ] ] } },
{ "type": "Feature", "properties": { "Name": "Incompleto", "description": "trecho de calçada para possível implementação de ciclovia/ciclofaixa para integração Pituba - Jardim de  Alah", "timestamp": null, "begin": null, "end": null }, "geometry": { "type": "LineString", "coordinates": [ [ -38.4568081, -13.0061304, 0.0 ], [ -38.4566881, -13.0060539, 0.0 ], [ -38.4564212, -13.0059037, 0.0 ], [ -38.4561557, -13.0057913, 0.0 ], [ -38.4558512, -13.0057129, 0.0 ], [ -38.4554435, -13.0056214, 0.0 ], [ -38.4549929, -13.0055365, 0.0 ], [ -38.4547126, -13.0054633, 0.0 ], [ -38.4544256, -13.0053601, 0.0 ], [ -38.45438, -13.00533, 0.0 ], [ -38.4542795, -13.005398, 0.0 ] ] } },
{ "type": "Feature", "properties": { "Name": "Muro", "description": null, "timestamp": null, "begin": null, "end": null }, "geometry": { "type": "LineString", "coordinates": [ [ -38.4714094, -12.9663833, 0.0 ], [ -38.4714147, -12.9664434, 0.0 ], [ -38.4714416, -12.9664931, 0.0 ], [ -38.4714523, -12.9665872, 0.0 ], [ -38.4714577, -12.9666447, 0.0 ], [ -38.4714979, -12.966663, 0.0 ], [ -38.471691, -12.9667205, 0.0 ], [ -38.4717607, -12.9667518, 0.0 ], [ -38.4718788, -12.9667649, 0.0 ], [ -38.4719968, -12.9667675, 0.0 ], [ -38.4720826, -12.9667466, 0.0 ], [ -38.4721577, -12.9667257, 0.0 ] ] } },
{ "type": "Feature", "properties": { "Name": "Sem Sinalização", "description": null, "timestamp": null, "begin": null, "end": null }, "geometry": { "type": "LineString", "coordinates": [ [ -38.4592885, -13.0026605, 0.0 ], [ -38.4600663, -13.0030551, 0.0 ], [ -38.4603077, -13.0035752, 0.0 ], [ -38.4612546, -13.0040547, 0.0 ], [ -38.4618366, -13.0039907, 0.0 ], [ -38.4622697, -13.0033027, 0.0 ], [ -38.4631777, -13.0037411, 0.0 ], [ -38.4635734, -13.00304, 0.0 ], [ -38.4644766, -13.0027784, 0.0 ], [ -38.4658519, -13.003455, 0.0 ] ] } }
]
}
