{
"type": "FeatureCollection",
"name": "REGIÃO",
"features": [
{ "type": "Feature", "properties": { "Name": "REGIÃO 1", "description": "descrição: <br>REGIÃO: ", "timestamp": null, "begin": null, "end": null, "descricao": null, "REGIAO": null, "O": null, "o2": null }, "geometry": { "type": "Polygon", "coordinates": [ [ [ -38.5099661, -12.9658918, 0.0 ], [ -38.5137426, -12.9692793, 0.0 ], [ -38.5164892, -12.9717885, 0.0 ], [ -38.5152018, -12.9730432, 0.0 ], [ -38.5175193, -12.9749669, 0.0 ], [ -38.5187209, -12.9764724, 0.0 ], [ -38.5213817, -12.9758033, 0.0 ], [ -38.5238708, -12.9791488, 0.0 ], [ -38.5216392, -12.9811561, 0.0 ], [ -38.5216392, -12.9831634, 0.0 ], [ -38.5229266, -12.9842507, 0.0 ], [ -38.5298789, -12.9952904, 0.0 ], [ -38.5303939, -12.9986357, 0.0 ], [ -38.531853, -12.9999738, 0.0 ], [ -38.533398, -13.0002247, 0.0 ], [ -38.5337413, -13.003319, 0.0 ], [ -38.5345996, -13.003319, 0.0 ], [ -38.5349429, -13.0047407, 0.0 ], [ -38.533913, -13.0057442, 0.0 ], [ -38.5340846, -13.0066641, 0.0 ], [ -38.5327113, -13.009173, 0.0 ], [ -38.5345138, -13.0103438, 0.0 ], [ -38.5327119, -13.0121011, 0.0 ], [ -38.5317672, -13.01118, 0.0 ], [ -38.5264457, -13.0101765, 0.0 ], [ -38.5235274, -13.0115982, 0.0 ], [ -38.5192359, -13.0107619, 0.0 ], [ -38.5150301, -13.0115982, 0.0 ], [ -38.5054172, -13.0122672, 0.0 ], [ -38.5024131, -13.0110964, 0.0 ], [ -38.500954, -13.0128526, 0.0 ], [ -38.4971774, -13.0115146, 0.0 ], [ -38.4929717, -13.0119327, 0.0 ], [ -38.4930575, -13.0133543, 0.0 ], [ -38.4909118, -13.013438, 0.0 ], [ -38.489281, -13.0151941, 0.0 ], [ -38.4886802, -13.0169503, 0.0 ], [ -38.4868777, -13.0175356, 0.0 ], [ -38.483187, -13.0157795, 0.0 ], [ -38.4793139, -13.0162394, 0.0 ], [ -38.4783214, -13.0152568, 0.0 ], [ -38.4737781, -13.0141758, 0.0 ], [ -38.4708195, -13.0134164, 0.0 ], [ -38.4776886, -13.0134515, 0.0 ], [ -38.4798932, -13.0129832, 0.0 ], [ -38.4810412, -13.0118491, 0.0 ], [ -38.487736, -13.0124344, 0.0 ], [ -38.4886802, -13.012769, 0.0 ], [ -38.488766, -13.0115146, 0.0 ], [ -38.4868777, -13.0066641, 0.0 ], [ -38.489796, -13.0064133, 0.0 ], [ -38.4926284, -13.0079186, 0.0 ], [ -38.4941733, -13.0078349, 0.0 ], [ -38.4961474, -13.0077513, 0.0 ], [ -38.4976066, -13.0075841, 0.0 ], [ -38.4991515, -13.006246, 0.0 ], [ -38.5010398, -13.006246, 0.0 ], [ -38.5017264, -13.0050752, 0.0 ], [ -38.5017264, -13.0034026, 0.0 ], [ -38.5026706, -13.0026499, 0.0 ], [ -38.5047305, -13.0002247, 0.0 ], [ -38.5061038, -12.9972139, 0.0 ], [ -38.506018, -12.9956249, 0.0 ], [ -38.5067046, -12.9940359, 0.0 ], [ -38.5051597, -12.9902724, 0.0 ], [ -38.5067046, -12.9888506, 0.0 ], [ -38.5067046, -12.9859234, 0.0 ], [ -38.5036153, -12.9860918, 0.0 ], [ -38.5032714, -12.981407, 0.0 ], [ -38.5012115, -12.978647, 0.0 ], [ -38.49957, -12.9724054, 0.0 ], [ -38.4996023, -12.9696348, 0.0 ], [ -38.5037543, -12.9687461, 0.0 ], [ -38.5083784, -12.9706176, 0.0 ], [ -38.5079171, -12.9679724, 0.0 ], [ -38.5087431, -12.9667492, 0.0 ], [ -38.5099661, -12.9658918, 0.0 ] ] ] } },
{ "type": "Feature", "properties": { "Name": "REGIÃO 2", "description": "descrição: <br>REGIÃO: 2", "timestamp": null, "begin": null, "end": null, "descricao": null, "REGIAO": 2.0, "O": 2, "o2": null }, "geometry": { "type": "Polygon", "coordinates": [ [ [ -38.4532642, -12.975704, 0.0 ], [ -38.4603024, -12.9752021, 0.0 ], [ -38.4648514, -12.979635, 0.0 ], [ -38.467083, -12.9822277, 0.0 ], [ -38.4680271, -12.9870786, 0.0 ], [ -38.4727478, -12.9883331, 0.0 ], [ -38.476181, -12.9920967, 0.0 ], [ -38.4766102, -12.9948566, 0.0 ], [ -38.4807301, -12.99862, 0.0 ], [ -38.4837341, -13.0002926, 0.0 ], [ -38.4834766, -13.0028852, 0.0 ], [ -38.4860516, -13.0055613, 0.0 ], [ -38.4870815, -13.0071502, 0.0 ], [ -38.4887123, -13.0114153, 0.0 ], [ -38.4886265, -13.0126697, 0.0 ], [ -38.4876823, -13.0123351, 0.0 ], [ -38.4809875, -13.0117498, 0.0 ], [ -38.4798932, -13.0129832, 0.0 ], [ -38.4784019, -13.0131871, 0.0 ], [ -38.4762454, -13.0137046, 0.0 ], [ -38.469057, -13.013276, 0.0 ], [ -38.4717392, -13.0136941, 0.0 ], [ -38.4725976, -13.0140077, 0.0 ], [ -38.472898, -13.0142167, 0.0 ], [ -38.4737781, -13.0141758, 0.0 ], [ -38.4714603, -13.0150112, 0.0 ], [ -38.4700871, -13.0149276, 0.0 ], [ -38.4684563, -13.0154293, 0.0 ], [ -38.4673405, -13.0121679, 0.0 ], [ -38.4610748, -13.0093246, 0.0 ], [ -38.4595299, -13.0073175, 0.0 ], [ -38.4576416, -13.0067321, 0.0 ], [ -38.4544659, -13.0071502, 0.0 ], [ -38.454037, -13.0058967, 0.0 ], [ -38.4521484, -13.0039723, 0.0 ], [ -38.4495735, -13.0038051, 0.0 ], [ -38.4475136, -12.9999581, 0.0 ], [ -38.445282, -12.9984527, 0.0 ], [ -38.4434798, -12.9984536, 0.0 ], [ -38.4404758, -12.9965301, 0.0 ], [ -38.4379005, -12.9921803, 0.0 ], [ -38.4334373, -12.986995, 0.0 ], [ -38.4378147, -12.9769585, 0.0 ], [ -38.4425354, -12.9772095, 0.0 ], [ -38.4481144, -12.9740312, 0.0 ], [ -38.4532642, -12.975704, 0.0 ] ] ] } },
{ "type": "Feature", "properties": { "Name": "REGIÃO 3", "description": "descrição: <br>REGIÃO: 3", "timestamp": null, "begin": null, "end": null, "descricao": null, "REGIAO": 3.0, "O": 3, "o2": null }, "geometry": { "type": "Polygon", "coordinates": [ [ [ -38.4534145, -12.9755576, 0.0 ], [ -38.4482861, -12.9740312, 0.0 ], [ -38.4427071, -12.9772095, 0.0 ], [ -38.4379864, -12.9769585, 0.0 ], [ -38.433609, -12.986995, 0.0 ], [ -38.4334159, -12.9870577, 0.0 ], [ -38.4329224, -12.9866604, 0.0 ], [ -38.4269143, -12.981475, 0.0 ], [ -38.4221077, -12.9787986, 0.0 ], [ -38.4203911, -12.9793004, 0.0 ], [ -38.4080315, -12.9702673, 0.0 ], [ -38.4009076, -12.9656671, 0.0 ], [ -38.3953286, -12.9618195, 0.0 ], [ -38.3862305, -12.9568844, 0.0 ], [ -38.3817673, -12.955588, 0.0 ], [ -38.3788061, -12.9568844, 0.0 ], [ -38.3775616, -12.9539987, 0.0 ], [ -38.3748579, -12.9526603, 0.0 ], [ -38.3734417, -12.9527022, 0.0 ], [ -38.3723259, -12.9518657, 0.0 ], [ -38.3675194, -12.9512384, 0.0 ], [ -38.3653307, -12.9516147, 0.0 ], [ -38.3652878, -12.9508619, 0.0 ], [ -38.3628845, -12.9522839, 0.0 ], [ -38.3625412, -12.9514475, 0.0 ], [ -38.3632278, -12.9501091, 0.0 ], [ -38.3616829, -12.9484361, 0.0 ], [ -38.3617687, -12.9459267, 0.0 ], [ -38.3608246, -12.9451738, 0.0 ], [ -38.3616829, -12.9432499, 0.0 ], [ -38.3586788, -12.9411586, 0.0 ], [ -38.3586788, -12.9390674, 0.0 ], [ -38.3601379, -12.9368088, 0.0 ], [ -38.358078, -12.9356376, 0.0 ], [ -38.356576, -12.9319569, 0.0 ], [ -38.3556747, -12.9269376, 0.0 ], [ -38.3537865, -12.9224202, 0.0 ], [ -38.3544731, -12.920747, 0.0 ], [ -38.3809519, -12.9253482, 0.0 ], [ -38.3835698, -12.9260592, 0.0 ], [ -38.3865309, -12.927565, 0.0 ], [ -38.3954144, -12.9350102, 0.0 ], [ -38.3988047, -12.9365996, 0.0 ], [ -38.4164429, -12.939402, 0.0 ], [ -38.4200907, -12.9422461, 0.0 ], [ -38.4336092, -12.9604394, 0.0 ], [ -38.4397674, -12.9675699, 0.0 ], [ -38.4516549, -12.9742194, 0.0 ], [ -38.4534145, -12.9755576, 0.0 ] ] ] } },
{ "type": "Feature", "properties": { "Name": "REGIÃO 4", "description": "descrição: <br>REGIÃO: 4", "timestamp": null, "begin": null, "end": null, "descricao": null, "REGIAO": 4.0, "O": 4, "o2": null }, "geometry": { "type": "Polygon", "coordinates": [ [ [ -38.3488083, -12.8961505, 0.0 ], [ -38.3530998, -12.8988278, 0.0 ], [ -38.3577347, -12.8968199, 0.0 ], [ -38.3633995, -12.8988278, 0.0 ], [ -38.3632278, -12.9016724, 0.0 ], [ -38.3579063, -12.9038477, 0.0 ], [ -38.3517265, -12.9068595, 0.0 ], [ -38.3498383, -12.9095367, 0.0 ], [ -38.3505249, -12.9110426, 0.0 ], [ -38.3515548, -12.9116491, 0.0 ], [ -38.3516836, -12.9125903, 0.0 ], [ -38.3527136, -12.9140544, 0.0 ], [ -38.353014, -12.9152674, 0.0 ], [ -38.3541298, -12.9186556, 0.0 ], [ -38.3544731, -12.920747, 0.0 ], [ -38.3537865, -12.9224202, 0.0 ], [ -38.3556747, -12.9269376, 0.0 ], [ -38.3565331, -12.9316223, 0.0 ], [ -38.358078, -12.9356376, 0.0 ], [ -38.3601379, -12.9368088, 0.0 ], [ -38.3586788, -12.9390674, 0.0 ], [ -38.3586788, -12.9411586, 0.0 ], [ -38.3606529, -12.9424134, 0.0 ], [ -38.3616829, -12.9432499, 0.0 ], [ -38.3608246, -12.9451738, 0.0 ], [ -38.3617687, -12.9459267, 0.0 ], [ -38.3619404, -12.9483525, 0.0 ], [ -38.3632278, -12.9501091, 0.0 ], [ -38.3625412, -12.9514475, 0.0 ], [ -38.3628845, -12.9522839, 0.0 ], [ -38.3627129, -12.9539569, 0.0 ], [ -38.3604813, -12.9552952, 0.0 ], [ -38.358593, -12.9562989, 0.0 ], [ -38.3537006, -12.9582228, 0.0 ], [ -38.3361912, -12.9450065, 0.0 ], [ -38.3354187, -12.945843, 0.0 ], [ -38.3178234, -12.9291127, 0.0 ], [ -38.3149052, -12.9261847, 0.0 ], [ -38.3150768, -12.9246789, 0.0 ], [ -38.3126736, -12.9222529, 0.0 ], [ -38.3022881, -12.9079471, 0.0 ], [ -38.3058929, -12.9035967, 0.0 ], [ -38.309412, -12.9046843, 0.0 ], [ -38.3168793, -12.9021744, 0.0 ], [ -38.3213425, -12.8977402, 0.0 ], [ -38.3254623, -12.8999155, 0.0 ], [ -38.3254623, -12.9014214, 0.0 ], [ -38.3278656, -12.9008358, 0.0 ], [ -38.3335304, -12.904517, 0.0 ], [ -38.3368778, -12.9056046, 0.0 ], [ -38.3390236, -12.903764, 0.0 ], [ -38.3422852, -12.9035967, 0.0 ], [ -38.3462334, -12.9062739, 0.0 ], [ -38.3480358, -12.9065249, 0.0 ], [ -38.3488083, -12.8961505, 0.0 ] ] ] } },
{ "type": "Feature", "properties": { "Name": "REGIÃO 6", "description": "descrição: <br>REGIÃO: 6", "timestamp": null, "begin": null, "end": null, "descricao": null, "REGIAO": 6.0, "O": 6, "o2": null }, "geometry": { "type": "Polygon", "coordinates": [ [ [ -38.4736824, -12.9522003, 0.0 ], [ -38.4728241, -12.9508608, 0.0 ], [ -38.4702492, -12.9451727, 0.0 ], [ -38.4702492, -12.938146, 0.0 ], [ -38.4705925, -12.9324577, 0.0 ], [ -38.4699059, -12.9264345, 0.0 ], [ -38.4671593, -12.9200766, 0.0 ], [ -38.464241, -12.9145552, 0.0 ], [ -38.4560013, -12.9033445, 0.0 ], [ -38.4518814, -12.8981573, 0.0 ], [ -38.4477615, -12.8916314, 0.0 ], [ -38.4453583, -12.8861093, 0.0 ], [ -38.443985, -12.8789136, 0.0 ], [ -38.4455299, -12.8687055, 0.0 ], [ -38.4506798, -12.8633503, 0.0 ], [ -38.453083, -12.858999, 0.0 ], [ -38.4560013, -12.8521385, 0.0 ], [ -38.454113, -12.8437703, 0.0 ], [ -38.4577179, -12.8337281, 0.0 ], [ -38.4611511, -12.8261962, 0.0 ], [ -38.4654427, -12.8206727, 0.0 ], [ -38.4683609, -12.8161534, 0.0 ], [ -38.4805489, -12.8156512, 0.0 ], [ -38.4836388, -12.8149817, 0.0 ], [ -38.4887886, -12.8034318, 0.0 ], [ -38.4906769, -12.7955642, 0.0 ], [ -38.4939384, -12.7955642, 0.0 ], [ -38.5008049, -12.7989121, 0.0 ], [ -38.5014915, -12.803934, 0.0 ], [ -38.5014915, -12.8059427, 0.0 ], [ -38.5004616, -12.8082862, 0.0 ], [ -38.4954834, -12.8112992, 0.0 ], [ -38.4903336, -12.8144795, 0.0 ], [ -38.4850121, -12.8189989, 0.0 ], [ -38.4863853, -12.8235182, 0.0 ], [ -38.4889603, -12.8253594, 0.0 ], [ -38.4899902, -12.8282048, 0.0 ], [ -38.4879303, -12.8317197, 0.0 ], [ -38.485527, -12.8330587, 0.0 ], [ -38.4832954, -12.8330587, 0.0 ], [ -38.4810638, -12.8337281, 0.0 ], [ -38.4741974, -12.8379124, 0.0 ], [ -38.4723091, -12.8415946, 0.0 ], [ -38.4716225, -12.8442724, 0.0 ], [ -38.4726524, -12.8477871, 0.0 ], [ -38.4757423, -12.8501302, 0.0 ], [ -38.475914, -12.8516364, 0.0 ], [ -38.4762573, -12.8536447, 0.0 ], [ -38.4776306, -12.8558204, 0.0 ], [ -38.4786606, -12.8564898, 0.0 ], [ -38.4803772, -12.8581634, 0.0 ], [ -38.4805489, -12.8601717, 0.0 ], [ -38.4805489, -12.8628494, 0.0 ], [ -38.4805489, -12.8668658, 0.0 ], [ -38.4798622, -12.8715516, 0.0 ], [ -38.4795189, -12.8748985, 0.0 ], [ -38.4819221, -12.8779107, 0.0 ], [ -38.4844971, -12.8799189, 0.0 ], [ -38.4867287, -12.8837677, 0.0 ], [ -38.4896469, -12.8897919, 0.0 ], [ -38.4918785, -12.8954812, 0.0 ], [ -38.4925652, -12.8998318, 0.0 ], [ -38.4929085, -12.9036803, 0.0 ], [ -38.4956551, -12.9073615, 0.0 ], [ -38.4999466, -12.9115446, 0.0 ], [ -38.5014915, -12.9160622, 0.0 ], [ -38.5050964, -12.9200778, 0.0 ], [ -38.5100746, -12.9214163, 0.0 ], [ -38.5123062, -12.9217509, 0.0 ], [ -38.5148811, -12.923926, 0.0 ], [ -38.5169411, -12.9267703, 0.0 ], [ -38.520031, -12.9281088, 0.0 ], [ -38.5181427, -12.9332954, 0.0 ], [ -38.5135078, -12.939151, 0.0 ], [ -38.5061264, -12.9423297, 0.0 ], [ -38.5033798, -12.9470141, 0.0 ], [ -38.4937668, -12.9423297, 0.0 ], [ -38.4898186, -12.940824, 0.0 ], [ -38.4841555, -12.940989, 0.0 ], [ -38.4810638, -12.9450065, 0.0 ], [ -38.4791774, -12.9473464, 0.0 ], [ -38.475399, -12.9498582, 0.0 ], [ -38.4736824, -12.9522003, 0.0 ] ] ] } },
{ "type": "Feature", "properties": { "Name": "REGIÃO 7", "description": "descrição: <br>REGIÃO: 7", "timestamp": null, "begin": null, "end": null, "descricao": null, "REGIAO": 7.0, "O": 7, "o2": null }, "geometry": { "type": "Polygon", "coordinates": [ [ [ -38.5099125, -12.9657925, 0.0 ], [ -38.5078634, -12.9678731, 0.0 ], [ -38.5042399, -12.9675885, 0.0 ], [ -38.4995486, -12.9695355, 0.0 ], [ -38.4995163, -12.9723061, 0.0 ], [ -38.5011578, -12.9785477, 0.0 ], [ -38.5030383, -12.9839818, 0.0 ], [ -38.5035616, -12.9859925, 0.0 ], [ -38.5033816, -12.9910071, 0.0 ], [ -38.5037249, -12.9958578, 0.0 ], [ -38.5023516, -13.0000394, 0.0 ], [ -38.4999484, -13.0048899, 0.0 ], [ -38.4953135, -13.0050572, 0.0 ], [ -38.4898204, -13.0040536, 0.0 ], [ -38.4862155, -13.0020465, 0.0 ], [ -38.4865588, -12.9997049, 0.0 ], [ -38.4843272, -12.9975305, 0.0 ], [ -38.4791774, -12.9935161, 0.0 ], [ -38.4784907, -12.9911744, 0.0 ], [ -38.4747142, -12.987829, 0.0 ], [ -38.4681892, -12.9858241, 0.0 ], [ -38.4678459, -12.9836495, 0.0 ], [ -38.4663028, -12.9803017, 0.0 ], [ -38.4669894, -12.9784617, 0.0 ], [ -38.4705943, -12.9769562, 0.0 ], [ -38.4750575, -12.9746143, 0.0 ], [ -38.477459, -12.9731111, 0.0 ], [ -38.478319, -12.9712687, 0.0 ], [ -38.479349, -12.9689268, 0.0 ], [ -38.4764308, -12.9639083, 0.0 ], [ -38.4740275, -12.9567148, 0.0 ], [ -38.4736824, -12.9522003, 0.0 ], [ -38.475399, -12.9498582, 0.0 ], [ -38.4791774, -12.9473464, 0.0 ], [ -38.4796923, -12.9451715, 0.0 ], [ -38.4841555, -12.940989, 0.0 ], [ -38.489477, -12.9396506, 0.0 ], [ -38.4935969, -12.9404871, 0.0 ], [ -38.4999466, -12.9450065, 0.0 ], [ -38.5021782, -12.9465122, 0.0 ], [ -38.5035515, -12.9510292, 0.0 ], [ -38.5054415, -12.9550419, 0.0 ], [ -38.5073298, -12.9550419, 0.0 ], [ -38.5090446, -12.9590592, 0.0 ], [ -38.5075015, -12.9613989, 0.0 ], [ -38.5099125, -12.9657925, 0.0 ] ] ] } },
{ "type": "Feature", "properties": { "Name": "REGIÃO 8", "description": "descrição: <br>REGIÃO: 8", "timestamp": null, "begin": null, "end": null, "descricao": null, "REGIAO": 8.0, "O": 8, "o2": null }, "geometry": { "type": "Polygon", "coordinates": [ [ [ -38.4186208, -12.9419291, 0.0 ], [ -38.4243393, -12.9344665, 0.0 ], [ -38.4353274, -12.9264357, 0.0 ], [ -38.4394455, -12.9237587, 0.0 ], [ -38.4425354, -12.9195758, 0.0 ], [ -38.4433937, -12.9147236, 0.0 ], [ -38.4425354, -12.9056882, 0.0 ], [ -38.4535217, -12.9063575, 0.0 ], [ -38.4571266, -12.9056882, 0.0 ], [ -38.4631348, -12.9125485, 0.0 ], [ -38.4655398, -12.917568, 0.0 ], [ -38.4686297, -12.9232568, 0.0 ], [ -38.4701747, -12.9297819, 0.0 ], [ -38.4702492, -12.938146, 0.0 ], [ -38.4717196, -12.9465122, 0.0 ], [ -38.4717196, -12.9501927, 0.0 ], [ -38.4730929, -12.9545424, 0.0 ], [ -38.4764308, -12.9639083, 0.0 ], [ -38.479349, -12.9689268, 0.0 ], [ -38.4750575, -12.9746143, 0.0 ], [ -38.4688014, -12.9779622, 0.0 ], [ -38.4600466, -12.9772931, 0.0 ], [ -38.4532642, -12.975704, 0.0 ], [ -38.4490603, -12.9752858, 0.0 ], [ -38.438074, -12.9650816, 0.0 ], [ -38.4306926, -12.9567172, 0.0 ], [ -38.4245127, -12.9460103, 0.0 ], [ -38.4186208, -12.9419291, 0.0 ] ] ] } },
{ "type": "Feature", "properties": { "Name": "REGIÃO 9", "description": "descrição: <br>REGIÃO: 9", "timestamp": null, "begin": null, "end": null, "descricao": null, "REGIAO": 9.0, "O": 9, "o2": null }, "geometry": { "type": "Polygon", "coordinates": [ [ [ -38.443985, -12.8789136, 0.0 ], [ -38.4494054, -12.8894526, 0.0 ], [ -38.4518814, -12.8981573, 0.0 ], [ -38.4535217, -12.9063575, 0.0 ], [ -38.4425354, -12.9056882, 0.0 ], [ -38.4435689, -12.910536, 0.0 ], [ -38.4394491, -12.9209097, 0.0 ], [ -38.429836, -12.9309484, 0.0 ], [ -38.4186208, -12.9419291, 0.0 ], [ -38.4042894, -12.937973, 0.0 ], [ -38.3965337, -12.9329561, 0.0 ], [ -38.3849537, -12.9272209, 0.0 ], [ -38.3646047, -12.9229175, 0.0 ], [ -38.3545589, -12.9203287, 0.0 ], [ -38.353014, -12.9152674, 0.0 ], [ -38.3515548, -12.9116491, 0.0 ], [ -38.3505249, -12.9110426, 0.0 ], [ -38.3498383, -12.9095367, 0.0 ], [ -38.3517265, -12.9068595, 0.0 ], [ -38.3569622, -12.9042659, 0.0 ], [ -38.3632278, -12.9016724, 0.0 ], [ -38.3683813, -12.9021698, 0.0 ], [ -38.3735311, -12.9015005, 0.0 ], [ -38.3855474, -12.8981539, 0.0 ], [ -38.3941305, -12.8917953, 0.0 ], [ -38.41061, -12.8840978, 0.0 ], [ -38.4222829, -12.8820897, 0.0 ], [ -38.4391057, -12.8807509, 0.0 ], [ -38.443985, -12.8789136, 0.0 ] ] ] } },
{ "type": "Feature", "properties": { "Name": "Ponto 9", "description": "descrição: <br>REGIÃO: ", "timestamp": null, "begin": null, "end": null, "descricao": null, "REGIAO": null, "O": null, "o2": null }, "geometry": { "type": "Point", "coordinates": [ -38.4476423, -12.9994485, 0.0 ] } }
]
}
