{
   "type":"FeatureCollection",
   "name":"2024-03_BikeSSA_Estações_instaladas e previstas (1) (1).xlsx",
   "crs":{
      "type":"name",
      "properties":{
         "name":"urn:ogc:def:crs:OGC:1.3:CRS84"
      }
   },
   "features":[
      {
         "type":"Feature",
         "properties":{
            "Name":"01 - Parque Costa Azul",
            "description":"NOME: Parque Costa Azul<br>ENDEREÇO: Rua Adelaide Fernandes da Costa, oposto ao número 300 / Esquina com a Rua Doutor Baureau -12.997949914578346, -38.44841115633396<br>STATUS ESTAÇÃO: IMPLANTADA<br>OBSERVAÇÕES: <br>BAIRRO: Costa Azul<br>nome: ",
            "tessellate":-1,
            "extrude":0,
            "visibility":-1,
            "NOME":"",
            "ENDERE__O":"Rua Adelaide Fernandes da Costa, oposto ao número 300 / Esquina com a Rua Doutor Baureau -12.997949914578346, -38.44841115633396",
            "STATUS_ESTA____O":"IMPLANTADA",
            "OBSERVA____ES":"",
            "BAIRRO":"Costa Azul"
         },
         "geometry":{
            "type":"Point",
            "coordinates":[
               -38.4483816,
               -12.997964,
               0.0
            ]
         }
      },
      {
         "type":"Feature",
         "properties":{
            "Name":"02 - Porto da Barra",
            "description":"NOME: Porto da Barra<br>ENDEREÇO: Av. Sete de Setembro, oposto ao Restaurante Ancorador e Hit Hotel<br>STATUS ESTAÇÃO: IMPLANTADA<br>OBSERVAÇÕES: <br>BAIRRO: Barra<br>nome: ",
            "tessellate":-1,
            "extrude":0,
            "visibility":-1,
            "NOME":"",
            "ENDERE__O":"Av. Sete de Setembro, oposto ao Restaurante Ancorador e Hit Hotel",
            "STATUS_ESTA____O":"IMPLANTADA",
            "OBSERVA____ES":"",
            "BAIRRO":"Barra"
         },
         "geometry":{
            "type":"Point",
            "coordinates":[
               -38.5327002,
               -13.0033044,
               0.0
            ]
         }
      },
      {
         "type":"Feature",
         "properties":{
            "Name":"03 - Boca do Rio II",
            "description":"NOME: Boca do Rio II<br>ENDEREÇO: Av. Octávio Mangabeira,  Igreja Evangélica Pão Peixe e Brasa n° 6153<br>STATUS ESTAÇÃO: IMPLANTADA<br>OBSERVAÇÕES: <br>BAIRRO: Boca do Rio<br>nome: ",
            "tessellate":-1,
            "extrude":0,
            "visibility":-1,
            "NOME":"",
            "ENDERE__O":"Av. Octávio Mangabeira,  Igreja Evangélica Pão Peixe e Brasa n° 6153",
            "STATUS_ESTA____O":"IMPLANTADA",
            "OBSERVA____ES":"",
            "BAIRRO":"Boca do Rio"
         },
         "geometry":{
            "type":"Point",
            "coordinates":[
               -38.4240998,
               -12.9778888,
               0.0
            ]
         }
      },
      {
         "type":"Feature",
         "properties":{
            "Name":"04 - Praça Orungan",
            "description":"NOME: Praça Orungan<br>ENDEREÇO: Praça Orungan,  Av. Oceânica<br>STATUS ESTAÇÃO: IMPLANTADA COM PAINEL<br>OBSERVAÇÕES: <br>BAIRRO: Ondina<br>nome: ",
            "tessellate":-1,
            "extrude":0,
            "visibility":-1,
            "NOME":"",
            "ENDERE__O":"Praça Orungan,  Av. Oceânica",
            "STATUS_ESTA____O":"IMPLANTADA COM PAINEL",
            "OBSERVA____ES":"",
            "BAIRRO":"Ondina"
         },
         "geometry":{
            "type":"Point",
            "coordinates":[
               -38.5186616,
               -13.0079421,
               0.0
            ]
         }
      },
      {
         "type":"Feature",
         "properties":{
            "Name":"05 - Rua Prof. Sabino Silva",
            "description":"NOME: R. Prof. Sabino Silva<br>ENDEREÇO: No canteiro central da Rua Prof Sabino Silva, próximo à Rua Manuel Dias Morais<br>STATUS ESTAÇÃO: IMPLANTADA<br>OBSERVAÇÕES: <br>BAIRRO: Ondina<br>nome: ",
            "tessellate":-1,
            "extrude":0,
            "visibility":-1,
            "NOME":"",
            "ENDERE__O":"No canteiro central da Rua Prof Sabino Silva, próximo à Rua Manuel Dias Morais",
            "STATUS_ESTA____O":"IMPLANTADA",
            "OBSERVA____ES":"",
            "BAIRRO":"Ondina"
         },
         "geometry":{
            "type":"Point",
            "coordinates":[
               -38.5178733,
               -13.0050096,
               0.0
            ]
         }
      },
      {
         "type":"Feature",
         "properties":{
            "Name":"06 - Avenida Sete",
            "description":"NOME: Avenida Sete<br>ENDEREÇO: Av. Sete de Setembro, 1174 <br>STATUS ESTAÇÃO: IMPLANTADA COM PAINEL<br>OBSERVAÇÕES: <br>BAIRRO: Centro<br>nome: ",
            "tessellate":-1,
            "extrude":0,
            "visibility":-1,
            "NOME":"",
            "ENDERE__O":"Av. Sete de Setembro, 1174 ",
            "STATUS_ESTA____O":"IMPLANTADA COM PAINEL",
            "OBSERVA____ES":"",
            "BAIRRO":"Centro"
         },
         "geometry":{
            "type":"Point",
            "coordinates":[
               -38.5199544,
               -12.9858191,
               0.0
            ]
         }
      },
      {
         "type":"Feature",
         "properties":{
            "Name":"07 - UFBA Portão 01",
            "description":"NOME: UFBA Portão 01<br>ENDEREÇO: Av. Adhemar de Barros, UFBA - Portão 01<br>STATUS ESTAÇÃO: IMPLANTADA<br>OBSERVAÇÕES: <br>BAIRRO: Ondina<br>nome: ",
            "tessellate":-1,
            "extrude":0,
            "visibility":-1,
            "NOME":"",
            "ENDERE__O":"Av. Adhemar de Barros, UFBA - Portão 01",
            "STATUS_ESTA____O":"IMPLANTADA",
            "OBSERVA____ES":"",
            "BAIRRO":"Ondina"
         },
         "geometry":{
            "type":"Point",
            "coordinates":[
               -38.5071575,
               -13.0025196,
               0.0
            ]
         }
      },
      {
         "type":"Feature",
         "properties":{
            "Name":"08 - Quadras do Rio Vermelho",
            "description":"NOME: Quadras do Rio Vermelho<br>ENDEREÇO: Rua da Paciência, ao lado da quadra de futebol, esquina da Travessa Lydio de Mesquita, oposto ao Mar Hotel Rio Vermelho<br>STATUS ESTAÇÃO: IMPLANTADA<br>OBSERVAÇÕES: <br>BAIRRO: Rio Vermelho<br>nome: ",
            "tessellate":-1,
            "extrude":0,
            "visibility":-1,
            "NOME":"",
            "ENDERE__O":"Rua da Paciência, ao lado da quadra de futebol, esquina da Travessa Lydio de Mesquita, oposto ao Mar Hotel Rio Vermelho",
            "STATUS_ESTA____O":"IMPLANTADA",
            "OBSERVA____ES":"",
            "BAIRRO":"Rio Vermelho"
         },
         "geometry":{
            "type":"Point",
            "coordinates":[
               -38.493795,
               -13.0111386,
               0.0
            ]
         }
      },
      {
         "type":"Feature",
         "properties":{
            "Name":"09 - Praça Carlos Batalha",
            "description":"NOME: Praça Carlos Batalha<br>ENDEREÇO: Rua Alagoinhas,  praça Carlos Batalha, salvador<br>STATUS ESTAÇÃO: IMPLANTADA<br>OBSERVAÇÕES: <br>BAIRRO: Rio Vermelho<br>nome: ",
            "tessellate":-1,
            "extrude":0,
            "visibility":-1,
            "NOME":"",
            "ENDERE__O":"Rua Alagoinhas,  praça Carlos Batalha, salvador",
            "STATUS_ESTA____O":"IMPLANTADA",
            "OBSERVA____ES":"",
            "BAIRRO":"Rio Vermelho"
         },
         "geometry":{
            "type":"Point",
            "coordinates":[
               -38.4898473,
               -13.0103247,
               0.0
            ]
         }
      },
      {
         "type":"Feature",
         "properties":{
            "Name":"10 - Largo da Mariquita",
            "description":"NOME: Largo da Mariquita<br>ENDEREÇO: Largo da Mariquita, em frente ao Hotel Bahia Park<br>STATUS ESTAÇÃO: IMPLANTADA<br>OBSERVAÇÕES: <br>BAIRRO: Rio Vermelho<br>nome: ",
            "tessellate":-1,
            "extrude":0,
            "visibility":-1,
            "NOME":"",
            "ENDERE__O":"Largo da Mariquita, em frente ao Hotel Bahia Park",
            "STATUS_ESTA____O":"IMPLANTADA",
            "OBSERVA____ES":"",
            "BAIRRO":"Rio Vermelho"
         },
         "geometry":{
            "type":"Point",
            "coordinates":[
               -38.4888093,
               -13.0133472,
               0.0
            ]
         }
      },
      {
         "type":"Feature",
         "properties":{
            "Name":"11 - Amaralina",
            "description":"NOME: Amaralina<br>ENDEREÇO: Avenida Octávio Mangabeira, , bile itau 11<br>STATUS ESTAÇÃO: IMPLANTADA<br>OBSERVAÇÕES: <br>BAIRRO: Amaralina<br>nome: ",
            "tessellate":-1,
            "extrude":0,
            "visibility":-1,
            "NOME":"",
            "ENDERE__O":"Avenida Octávio Mangabeira, , bile itau 11",
            "STATUS_ESTA____O":"IMPLANTADA",
            "OBSERVA____ES":"",
            "BAIRRO":"Amaralina"
         },
         "geometry":{
            "type":"Point",
            "coordinates":[
               -38.4678475,
               -13.0121105,
               0.0
            ]
         }
      },
      {
         "type":"Feature",
         "properties":{
            "Name":"12 - Praça Marconi",
            "description":"NOME: Praça Marconi<br>ENDEREÇO: Praça Marconi, esquina com a Rua Bahia<br>STATUS ESTAÇÃO: IMPLANTADA COM PAINEL<br>OBSERVAÇÕES: <br>BAIRRO: Pituba<br>nome: ",
            "tessellate":-1,
            "extrude":0,
            "visibility":-1,
            "NOME":"",
            "ENDERE__O":"Praça Marconi, esquina com a Rua Bahia",
            "STATUS_ESTA____O":"IMPLANTADA COM PAINEL",
            "OBSERVA____ES":"",
            "BAIRRO":"Pituba"
         },
         "geometry":{
            "type":"Point",
            "coordinates":[
               -38.4553185,
               -13.0027559,
               0.0
            ]
         }
      },
      {
         "type":"Feature",
         "properties":{
            "Name":"13 - Largo da Piedade",
            "description":"NOME: Largo da Piedade<br>ENDEREÇO: Praça da Piedade, oposto à Ladeira dos Barris / próximo a Polícia Civil da Bahia<br>STATUS ESTAÇÃO: IMPLANTADA<br>OBSERVAÇÕES: <br>BAIRRO: Centro<br>nome: ",
            "tessellate":-1,
            "extrude":0,
            "visibility":-1,
            "NOME":"",
            "ENDERE__O":"Praça da Piedade, oposto à Ladeira dos Barris / próximo a Polícia Civil da Bahia",
            "STATUS_ESTA____O":"IMPLANTADA",
            "OBSERVA____ES":"",
            "BAIRRO":"Centro"
         },
         "geometry":{
            "type":"Point",
            "coordinates":[
               -38.5150677,
               -12.9835792,
               0.0
            ]
         }
      },
      {
         "type":"Feature",
         "properties":{
            "Name":"14 - Pedra da Sereia",
            "description":"NOME: Pedra da Sereia<br>ENDEREÇO: Praça Tarquínio Gonzaga. Av. Oceânica<br>STATUS ESTAÇÃO: IMPLANTADA<br>OBSERVAÇÕES: <br>BAIRRO: Ondina<br>nome: ",
            "tessellate":-1,
            "extrude":0,
            "visibility":-1,
            "NOME":"",
            "ENDERE__O":"Praça Tarquínio Gonzaga. Av. Oceânica",
            "STATUS_ESTA____O":"IMPLANTADA",
            "OBSERVA____ES":"",
            "BAIRRO":"Ondina"
         },
         "geometry":{
            "type":"Point",
            "coordinates":[
               -38.5016323,
               -13.0109475,
               0.0
            ]
         }
      },
      {
         "type":"Feature",
         "properties":{
            "Name":"15 - Praça do Fórum Ruy Barbosa",
            "description":"NOME: Praça do Fórum Ruy Barbosa<br>ENDEREÇO: Rua Tingui, na Praça do Forum Ruy Barbosa / Na saída do Metrô / Esquina com a Avenida Joana Angélica<br>STATUS ESTAÇÃO: IMPLANTADA COM PAINEL<br>OBSERVAÇÕES: <br>BAIRRO: Nazaré<br>nome: ",
            "tessellate":-1,
            "extrude":0,
            "visibility":-1,
            "NOME":"",
            "ENDERE__O":"Rua Tingui, na Praça do Forum Ruy Barbosa / Na saída do Metrô / Esquina com a Avenida Joana Angélica",
            "STATUS_ESTA____O":"IMPLANTADA COM PAINEL",
            "OBSERVA____ES":"",
            "BAIRRO":"Nazaré"
         },
         "geometry":{
            "type":"Point",
            "coordinates":[
               -38.5081063,
               -12.97947,
               0.0
            ]
         }
      },
      {
         "type":"Feature",
         "properties":{
            "Name":"16 - Parque dos Ventos",
            "description":"NOME: Parque dos Ventos<br>ENDEREÇO: Av. Octávio Mangabeira, 1242<br>STATUS ESTAÇÃO: IMPLANTADA A SER REALOCADA<br>OBSERVAÇÕES: REALOCAR PARA PORTÃO PRINCIPAL<br>BAIRRO: Boca do Rio<br>nome: ",
            "tessellate":-1,
            "extrude":0,
            "visibility":-1,
            "NOME":"",
            "ENDERE__O":"Av. Octávio Mangabeira, 1242",
            "STATUS_ESTA____O":"IMPLANTADA A SER REALOCADA",
            "OBSERVA____ES":"REALOCAR PARA PORTÃO PRINCIPAL",
            "BAIRRO":"Boca do Rio"
         },
         "geometry":{
            "type":"Point",
            "coordinates":[
               -38.4295669,
               -12.9799058,
               0.0
            ]
         }
      },
      {
         "type":"Feature",
         "properties":{
            "Name":"17 - Pituaçu",
            "description":"NOME: Pituaçu<br>ENDEREÇO: Av. Octávio Mangabeira, 12395<br>STATUS ESTAÇÃO: IMPLANTADA PROVISÓRIA<br>OBSERVAÇÕES: PROVISÓRIA OBRA<br>BAIRRO: Piatã<br>nome: ",
            "tessellate":-1,
            "extrude":0,
            "visibility":-1,
            "NOME":"",
            "ENDERE__O":"Av. Octávio Mangabeira, 12395",
            "STATUS_ESTA____O":"IMPLANTADA PROVISÓRIA",
            "OBSERVA____ES":"PROVISÓRIA OBRA",
            "BAIRRO":"Piatã"
         },
         "geometry":{
            "type":"Point",
            "coordinates":[
               -38.3735823,
               -12.9517628,
               0.0
            ]
         }
      },
      {
         "type":"Feature",
         "properties":{
            "Name":"18 - Orla Pituba",
            "description":"NOME: Orla Pituba<br>ENDEREÇO: Avenida Octávio Mangabeira,altura do número 345, próximo ao restaurante Ki Mukeka-Pituba<br>STATUS ESTAÇÃO: IMPLANTADA<br>OBSERVAÇÕES: <br>BAIRRO: Pituba<br>nome: ",
            "tessellate":-1,
            "extrude":0,
            "visibility":-1,
            "NOME":"",
            "ENDERE__O":"Avenida Octávio Mangabeira,altura do número 345, próximo ao restaurante Ki Mukeka-Pituba",
            "STATUS_ESTA____O":"IMPLANTADA",
            "OBSERVA____ES":"",
            "BAIRRO":"Pituba"
         },
         "geometry":{
            "type":"Point",
            "coordinates":[
               -38.4655419,
               -13.010688,
               0.0
            ]
         }
      },
      {
         "type":"Feature",
         "properties":{
            "Name":"19 - Parquinho Jardim de Alah",
            "description":"NOME: Parquinho Jardim de Alah<br>ENDEREÇO: Av. Octavio Mangabeira, número 3251, Jardim de Alah -12.997065875574291, -38.44283785697205<br>STATUS ESTAÇÃO: IMPLANTADA<br>OBSERVAÇÕES: <br>BAIRRO: Jardim Armação<br>nome: ",
            "tessellate":-1,
            "extrude":0,
            "visibility":-1,
            "NOME":"",
            "ENDERE__O":"Av. Octavio Mangabeira, número 3251, Jardim de Alah -12.997065875574291, -38.44283785697205",
            "STATUS_ESTA____O":"IMPLANTADA",
            "OBSERVA____ES":"",
            "BAIRRO":"Jardim Armação"
         },
         "geometry":{
            "type":"Point",
            "coordinates":[
               -38.4434706,
               -12.9975168,
               0.0
            ]
         }
      },
      {
         "type":"Feature",
         "properties":{
            "Name":"20 - Metrô Lapa",
            "description":"NOME: Metrô Lapa<br>ENDEREÇO: Av. Joana Angélica, no acesso ao Metrô Lapa, na Praça Carneiro Ribeiro<br>STATUS ESTAÇÃO: IMPLANTADA<br>OBSERVAÇÕES: <br>BAIRRO: Nazaré<br>nome: ",
            "tessellate":-1,
            "extrude":0,
            "visibility":-1,
            "NOME":"",
            "ENDERE__O":"Av. Joana Angélica, no acesso ao Metrô Lapa, na Praça Carneiro Ribeiro",
            "STATUS_ESTA____O":"IMPLANTADA",
            "OBSERVA____ES":"",
            "BAIRRO":"Nazaré"
         },
         "geometry":{
            "type":"Point",
            "coordinates":[
               -38.5120415,
               -12.980981,
               0.0
            ]
         }
      },
      {
         "type":"Feature",
         "properties":{
            "Name":"21 - Campo Grande",
            "description":"NOME: Campo Grande<br>ENDEREÇO: Calçada da Praça do Campo Grande, no lado oposto do Teatro Castro Alves<br>STATUS ESTAÇÃO: IMPLANTADA<br>OBSERVAÇÕES: <br>BAIRRO: Centro<br>nome: ",
            "tessellate":-1,
            "extrude":0,
            "visibility":-1,
            "NOME":"",
            "ENDERE__O":"Calçada da Praça do Campo Grande, no lado oposto do Teatro Castro Alves",
            "STATUS_ESTA____O":"IMPLANTADA",
            "OBSERVA____ES":"",
            "BAIRRO":"Centro"
         },
         "geometry":{
            "type":"Point",
            "coordinates":[
               -38.5204042,
               -12.9887399,
               0.0
            ]
         }
      },
      {
         "type":"Feature",
         "properties":{
            "Name":"22 - Largo da Graça",
            "description":"NOME: Largo da Graça<br>ENDEREÇO: Praça Dr. Paterson, Igreja da Graça<br>STATUS ESTAÇÃO: IMPLANTADA COM PAINEL<br>OBSERVAÇÕES: <br>BAIRRO: Graça<br>nome: ",
            "tessellate":-1,
            "extrude":0,
            "visibility":-1,
            "NOME":"",
            "ENDERE__O":"Praça Dr. Paterson, Igreja da Graça",
            "STATUS_ESTA____O":"IMPLANTADA COM PAINEL",
            "OBSERVA____ES":"",
            "BAIRRO":"Graça"
         },
         "geometry":{
            "type":"Point",
            "coordinates":[
               -38.5237463,
               -12.9992281,
               0.0
            ]
         }
      },
      {
         "type":"Feature",
         "properties":{
            "Name":"23 - Nossa Senhora da Luz",
            "description":"NOME: Nossa Senhora da Luz<br>ENDEREÇO: Praça Nossa Senhora da Luz<br>STATUS ESTAÇÃO: IMPLANTADA<br>OBSERVAÇÕES: <br>BAIRRO: Pituba<br>nome: ",
            "tessellate":-1,
            "extrude":0,
            "visibility":-1,
            "NOME":"",
            "ENDERE__O":"Praça Nossa Senhora da Luz",
            "STATUS_ESTA____O":"IMPLANTADA",
            "OBSERVA____ES":"",
            "BAIRRO":"Pituba"
         },
         "geometry":{
            "type":"Point",
            "coordinates":[
               -38.457315,
               -13.0059705,
               0.0
            ]
         }
      },
      {
         "type":"Feature",
         "properties":{
            "Name":"24 - Barravento",
            "description":"NOME: Barravento<br>ENDEREÇO: Av. Oceânica, 814, restaurante Barravento<br>STATUS ESTAÇÃO: IMPLANTADA<br>OBSERVAÇÕES: <br>BAIRRO: Barra<br>nome: ",
            "tessellate":-1,
            "extrude":0,
            "visibility":-1,
            "NOME":"",
            "ENDERE__O":"Av. Oceânica, 814, restaurante Barravento",
            "STATUS_ESTA____O":"IMPLANTADA",
            "OBSERVA____ES":"",
            "BAIRRO":"Barra"
         },
         "geometry":{
            "type":"Point",
            "coordinates":[
               -38.5258089,
               -13.00935,
               0.0
            ]
         }
      },
      {
         "type":"Feature",
         "properties":{
            "Name":"25 - Paseo Itaigara",
            "description":"NOME: Paseo Itaigara<br>ENDEREÇO: Rua Rubens Guellí, no estacionamento do Shopping Paseo Itaigara<br>STATUS ESTAÇÃO: IMPLANTADA<br>OBSERVAÇÕES: <br>BAIRRO: Itaigara<br>nome: ",
            "tessellate":-1,
            "extrude":0,
            "visibility":-1,
            "NOME":"",
            "ENDERE__O":"Rua Rubens Guellí, no estacionamento do Shopping Paseo Itaigara",
            "STATUS_ESTA____O":"IMPLANTADA",
            "OBSERVA____ES":"",
            "BAIRRO":"Itaigara"
         },
         "geometry":{
            "type":"Point",
            "coordinates":[
               -38.4708937,
               -12.9957612,
               0.0
            ]
         }
      },
      {
         "type":"Feature",
         "properties":{
            "Name":"26 - Praça Aquarius",
            "description":"NOME: Praça Aquarius<br>ENDEREÇO: No centro da praça Aquarius, oposto ao Hotel Mercure<br>STATUS ESTAÇÃO: IMPLANTADA<br>OBSERVAÇÕES: <br>BAIRRO: Pituba<br>nome: ",
            "tessellate":-1,
            "extrude":0,
            "visibility":-1,
            "NOME":"",
            "ENDERE__O":"No centro da praça Aquarius, oposto ao Hotel Mercure",
            "STATUS_ESTA____O":"IMPLANTADA",
            "OBSERVA____ES":"",
            "BAIRRO":"Pituba"
         },
         "geometry":{
            "type":"Point",
            "coordinates":[
               -38.4523524,
               -12.9869298,
               0.0
            ]
         }
      },
      {
         "type":"Feature",
         "properties":{
            "Name":"27 - Praça Ana Lúcia Magalhães",
            "description":"NOME: Praça Ana Lúcia Magalhães<br>ENDEREÇO: Praça Ana Lúcia Magalhães, no gramado ao lado da Academia<br>STATUS ESTAÇÃO: IMPLANTADA<br>OBSERVAÇÕES: <br>BAIRRO: Itaigara<br>nome: ",
            "tessellate":-1,
            "extrude":0,
            "visibility":-1,
            "NOME":"",
            "ENDERE__O":"Praça Ana Lúcia Magalhães, no gramado ao lado da Academia",
            "STATUS_ESTA____O":"IMPLANTADA",
            "OBSERVA____ES":"",
            "BAIRRO":"Itaigara"
         },
         "geometry":{
            "type":"Point",
            "coordinates":[
               -38.4609001,
               -12.993343,
               0.0
            ]
         }
      },
      {
         "type":"Feature",
         "properties":{
            "Name":"28 - Largo da Vitória",
            "description":"NOME: Largo da Vitória<br>ENDEREÇO: Largo da Vitória, oposto à Paróquia Nossa Senhora da Vitória, esquina com Avenida Sete de Setembro<br>STATUS ESTAÇÃO: IMPLANTADA<br>OBSERVAÇÕES: <br>BAIRRO: Vitória<br>nome: ",
            "tessellate":-1,
            "extrude":0,
            "visibility":-1,
            "NOME":"",
            "ENDERE__O":"Largo da Vitória, oposto à Paróquia Nossa Senhora da Vitória, esquina com Avenida Sete de Setembro",
            "STATUS_ESTA____O":"IMPLANTADA",
            "OBSERVA____ES":"",
            "BAIRRO":"Vitória"
         },
         "geometry":{
            "type":"Point",
            "coordinates":[
               -38.5276512,
               -12.9962356,
               0.0
            ]
         }
      },
      {
         "type":"Feature",
         "properties":{
            "Name":"29 - Praça do Sol",
            "description":"NOME: Praça do Sol<br>ENDEREÇO: Av. Oceânica, esquina com Av. Adhemar de Barros<br>STATUS ESTAÇÃO: IMPLANTADA<br>OBSERVAÇÕES: <br>BAIRRO: Ondina<br>nome: ",
            "tessellate":-1,
            "extrude":0,
            "visibility":-1,
            "NOME":"",
            "ENDERE__O":"Av. Oceânica, esquina com Av. Adhemar de Barros",
            "STATUS_ESTA____O":"IMPLANTADA",
            "OBSERVA____ES":"",
            "BAIRRO":"Ondina"
         },
         "geometry":{
            "type":"Point",
            "coordinates":[
               -38.509234,
               -13.0106703,
               0.0
            ]
         }
      },
      {
         "type":"Feature",
         "properties":{
            "Name":"30 - Centenário",
            "description":"NOME: Centenário<br>ENDEREÇO: Avenida Centenário, 2992. Na calçada em frente ao Shopping Barra / Próximo à esquina da Rua Professor Sabino Silva<br>STATUS ESTAÇÃO: IMPLANTADA COM PAINEL<br>OBSERVAÇÕES: <br>BAIRRO: Barra<br>nome: ",
            "tessellate":-1,
            "extrude":0,
            "visibility":-1,
            "NOME":"",
            "ENDERE__O":"Avenida Centenário, 2992. Na calçada em frente ao Shopping Barra / Próximo à esquina da Rua Professor Sabino Silva",
            "STATUS_ESTA____O":"IMPLANTADA COM PAINEL",
            "OBSERVA____ES":"",
            "BAIRRO":"Barra"
         },
         "geometry":{
            "type":"Point",
            "coordinates":[
               -38.5232012,
               -13.0060794,
               0.0
            ]
         }
      },
      {
         "type":"Feature",
         "properties":{
            "Name":"31 - Fonte do Boi",
            "description":"NOME: Fonte do Boi<br>ENDEREÇO: R Fonte do Boi, no canteiro central, nº 55<br>STATUS ESTAÇÃO: IMPLANTADA<br>OBSERVAÇÕES: <br>BAIRRO: Rio Vermelho<br>nome: ",
            "tessellate":-1,
            "extrude":0,
            "visibility":-1,
            "NOME":"",
            "ENDERE__O":"R Fonte do Boi, no canteiro central, nº 55",
            "STATUS_ESTA____O":"IMPLANTADA",
            "OBSERVA____ES":"",
            "BAIRRO":"Rio Vermelho"
         },
         "geometry":{
            "type":"Point",
            "coordinates":[
               -38.4858031,
               -13.0137448,
               0.0
            ]
         }
      },
      {
         "type":"Feature",
         "properties":{
            "Name":"32 - Hotel Bahia do Sol",
            "description":"NOME: Hotel Bahia do Sol<br>ENDEREÇO: Hotel Bahia do Sol na Av. Sete de Setembro<br>STATUS ESTAÇÃO: IMPLANTADA<br>OBSERVAÇÕES: <br>BAIRRO: Vitória<br>nome: ",
            "tessellate":-1,
            "extrude":0,
            "visibility":-1,
            "NOME":"",
            "ENDERE__O":"Hotel Bahia do Sol na Av. Sete de Setembro",
            "STATUS_ESTA____O":"IMPLANTADA",
            "OBSERVA____ES":"",
            "BAIRRO":"Vitória"
         },
         "geometry":{
            "type":"Point",
            "coordinates":[
               -38.5250256,
               -12.991026,
               0.0
            ]
         }
      },
      {
         "type":"Feature",
         "properties":{
            "Name":"33 - Jardim de Alah",
            "description":"NOME: Jardim de Alah<br>ENDEREÇO: Av. Otávio Mangabeira, número 3551, Salvador Suites Residence<br>-12.993367561671377, -38.43929925590763<br><br>STATUS ESTAÇÃO: IMPLANTADA<br>OBSERVAÇÕES: <br>BAIRRO: Jardim Armação<br>nome: ",
            "tessellate":-1,
            "extrude":0,
            "visibility":-1,
            "NOME":"",
            "ENDERE__O":"Av. Otávio Mangabeira, número 3551, Salvador Suites Residence\n-12.993367561671377, -38.43929925590763\n",
            "STATUS_ESTA____O":"IMPLANTADA",
            "OBSERVA____ES":"",
            "BAIRRO":"Jardim Armação"
         },
         "geometry":{
            "type":"Point",
            "coordinates":[
               -38.4402447,
               -12.9940353,
               0.0
            ]
         }
      },
      {
         "type":"Feature",
         "properties":{
            "Name":"34 - Boca do Rio",
            "description":"NOME: Boca do Rio<br>ENDEREÇO: Av. Octavio Mangabeira, ao lado das Quadras de tênis da Boca do Rio. Oposto ao Posto Shell<br>STATUS ESTAÇÃO: IMPLANTADA<br>OBSERVAÇÕES: EM OBRA<br>BAIRRO: Boca do Rio<br>nome: ",
            "tessellate":-1,
            "extrude":0,
            "visibility":-1,
            "NOME":"",
            "ENDERE__O":"Av. Octavio Mangabeira, ao lado das Quadras de tênis da Boca do Rio. Oposto ao Posto Shell",
            "STATUS_ESTA____O":"IMPLANTADA",
            "OBSERVA____ES":"EM OBRA",
            "BAIRRO":"Boca do Rio"
         },
         "geometry":{
            "type":"Point",
            "coordinates":[
               -38.420689,
               -12.9759975,
               0.0
            ]
         }
      },
      {
         "type":"Feature",
         "properties":{
            "Name":"35 - Centro de Convenções",
            "description":"NOME: Centro de Convenções<br>ENDEREÇO: Orla da Boca do Rio, no Parque dos Ventos<br>STATUS ESTAÇÃO: IMPLANTADA<br>OBSERVAÇÕES: <br>BAIRRO: Boca do Rio<br>nome: ",
            "tessellate":-1,
            "extrude":0,
            "visibility":-1,
            "NOME":"",
            "ENDERE__O":"Orla da Boca do Rio, no Parque dos Ventos",
            "STATUS_ESTA____O":"IMPLANTADA",
            "OBSERVA____ES":"",
            "BAIRRO":"Boca do Rio"
         },
         "geometry":{
            "type":"Point",
            "coordinates":[
               -38.4338996,
               -12.9859337,
               0.0
            ]
         }
      },
      {
         "type":"Feature",
         "properties":{
            "Name":"36 - Jaguaribe II",
            "description":"NOME: Jaguaribe II<br>ENDEREÇO: Av. Octávio Mangabeira, próximo ao Posto BR - Patamares, na altura da Alameda Praia do Leme, após a ponte<br>STATUS ESTAÇÃO: IMPLANTADA PROVISÓRIA<br>OBSERVAÇÕES: PROVISÓRIA OBRA<br>BAIRRO: Itapuã<br>nome: ",
            "tessellate":-1,
            "extrude":0,
            "visibility":-1,
            "NOME":"",
            "ENDERE__O":"Av. Octávio Mangabeira, próximo ao Posto BR - Patamares, na altura da Alameda Praia do Leme, após a ponte",
            "STATUS_ESTA____O":"IMPLANTADA PROVISÓRIA",
            "OBSERVA____ES":"PROVISÓRIA OBRA",
            "BAIRRO":"Itapuã"
         },
         "geometry":{
            "type":"Point",
            "coordinates":[
               -38.4002624,
               -12.9626902,
               0.0
            ]
         }
      },
      {
         "type":"Feature",
         "properties":{
            "Name":"37 - Jaguaribe",
            "description":"NOME: Jaguaribe<br>ENDEREÇO: Avenida Otávio Mangabeira, próximo à passarela e à faixa de pedestres, oposto ao Hotel Jaguaribe Praia<br>STATUS ESTAÇÃO: IMPLANTADA<br>OBSERVAÇÕES: <br>BAIRRO: Piatã<br>nome: ",
            "tessellate":-1,
            "extrude":0,
            "visibility":-1,
            "NOME":"",
            "ENDERE__O":"Avenida Otávio Mangabeira, próximo à passarela e à faixa de pedestres, oposto ao Hotel Jaguaribe Praia",
            "STATUS_ESTA____O":"IMPLANTADA",
            "OBSERVA____ES":"",
            "BAIRRO":"Piatã"
         },
         "geometry":{
            "type":"Point",
            "coordinates":[
               -38.3867104,
               -12.9558739,
               0.0
            ]
         }
      },
      {
         "type":"Feature",
         "properties":{
            "Name":"38 - Piatã",
            "description":"NOME: Piatã<br>ENDEREÇO: Avenida Otávio Mangabeira, próximo à passarela e à faixa de pedestres, oposto ao Hotel Jaguaribe Praiaitapu<br>STATUS ESTAÇÃO: IMPLANTADA<br>OBSERVAÇÕES: <br>BAIRRO: Piatã<br>nome: ",
            "tessellate":-1,
            "extrude":0,
            "visibility":-1,
            "NOME":"",
            "ENDERE__O":"Avenida Otávio Mangabeira, próximo à passarela e à faixa de pedestres, oposto ao Hotel Jaguaribe Praiaitapu",
            "STATUS_ESTA____O":"IMPLANTADA",
            "OBSERVA____ES":"",
            "BAIRRO":"Piatã"
         },
         "geometry":{
            "type":"Point",
            "coordinates":[
               -38.3794013,
               -12.9534429,
               0.0
            ]
         }
      },
      {
         "type":"Feature",
         "properties":{
            "Name":"39 - Itapuã",
            "description":"NOME: Itapuã<br>ENDEREÇO: Av. Otávio Mangabeira, em frente ao Restaurante Portal de Itapuã<br>STATUS ESTAÇÃO: IMPLANTADA<br>OBSERVAÇÕES: <br>BAIRRO: Itapuã<br>nome: ",
            "tessellate":-1,
            "extrude":0,
            "visibility":-1,
            "NOME":"",
            "ENDERE__O":"Av. Otávio Mangabeira, em frente ao Restaurante Portal de Itapuã",
            "STATUS_ESTA____O":"IMPLANTADA",
            "OBSERVA____ES":"",
            "BAIRRO":"Itapuã"
         },
         "geometry":{
            "type":"Point",
            "coordinates":[
               -38.3659475,
               -12.9502493,
               0.0
            ]
         }
      },
      {
         "type":"Feature",
         "properties":{
            "Name":"40 - Pituba Manoel Dias",
            "description":"NOME: Pituba Manoel Dias<br>ENDEREÇO: rua paraiba, pituba<br>STATUS ESTAÇÃO: IMPLANTADA COM PAINEL<br>OBSERVAÇÕES: <br>BAIRRO: Pituba<br>nome: ",
            "tessellate":-1,
            "extrude":0,
            "visibility":-1,
            "NOME":"",
            "ENDERE__O":"rua paraiba, pituba",
            "STATUS_ESTA____O":"IMPLANTADA COM PAINEL",
            "OBSERVA____ES":"",
            "BAIRRO":"Pituba"
         },
         "geometry":{
            "type":"Point",
            "coordinates":[
               -38.4620487,
               -13.0072034,
               0.0
            ]
         }
      },
      {
         "type":"Feature",
         "properties":{
            "Name":"41 - Praça Lord Cochrane",
            "description":"NOME: Praça Lord Cochrane<br>ENDEREÇO: Praça Lord Cochrane<br>STATUS ESTAÇÃO: IMPLANTADA COM PAINEL<br>OBSERVAÇÕES: <br>BAIRRO: Federação<br>nome: ",
            "tessellate":-1,
            "extrude":0,
            "visibility":-1,
            "NOME":"",
            "ENDERE__O":"Praça Lord Cochrane",
            "STATUS_ESTA____O":"IMPLANTADA COM PAINEL",
            "OBSERVA____ES":"",
            "BAIRRO":"Federação"
         },
         "geometry":{
            "type":"Point",
            "coordinates":[
               -38.5081792,
               -12.9940472,
               0.0
            ]
         }
      },
      {
         "type":"Feature",
         "properties":{
            "Name":"42 - Centenário II",
            "description":"NOME: Centenário II<br>ENDEREÇO: Av. Centenário, Praça Oscar Hilário<br>STATUS ESTAÇÃO: IMPLANTADA COM PAINEL<br>OBSERVAÇÕES: <br>BAIRRO: Graça<br>nome: ",
            "tessellate":-1,
            "extrude":0,
            "visibility":-1,
            "NOME":"",
            "ENDERE__O":"Av. Centenário, Praça Oscar Hilário",
            "STATUS_ESTA____O":"IMPLANTADA COM PAINEL",
            "OBSERVA____ES":"",
            "BAIRRO":"Graça"
         },
         "geometry":{
            "type":"Point",
            "coordinates":[
               -38.5216865,
               -13.0030739,
               0.0
            ]
         }
      },
      {
         "type":"Feature",
         "properties":{
            "Name":"43 - Praça Clériston Andrade",
            "description":"NOME: Praça Clériston Andrade<br>ENDEREÇO: Av. Anita Garibaldi,  Centro Médico Garibaldi Nº 1555<br>STATUS ESTAÇÃO: IMPLANTADA COM PAINEL<br>OBSERVAÇÕES: <br>BAIRRO: Federação<br>nome: ",
            "tessellate":-1,
            "extrude":0,
            "visibility":-1,
            "NOME":"",
            "ENDERE__O":"Av. Anita Garibaldi,  Centro Médico Garibaldi Nº 1555",
            "STATUS_ESTA____O":"IMPLANTADA COM PAINEL",
            "OBSERVA____ES":"",
            "BAIRRO":"Federação"
         },
         "geometry":{
            "type":"Point",
            "coordinates":[
               -38.5040884,
               -13.0018767,
               0.0
            ]
         }
      },
      {
         "type":"Feature",
         "properties":{
            "Name":"44 - Quartel de Amaralina",
            "description":"NOME: Quartel de Amaralina<br>ENDEREÇO: R. Marquês de Monte Santo com Av. Amaralina, na praça em frente ao Quartel<br>STATUS ESTAÇÃO: IMPLANTADA<br>OBSERVAÇÕES: <br>BAIRRO: Amaralina<br>nome: ",
            "tessellate":-1,
            "extrude":0,
            "visibility":-1,
            "NOME":"",
            "ENDERE__O":"R. Marquês de Monte Santo com Av. Amaralina, na praça em frente ao Quartel",
            "STATUS_ESTA____O":"IMPLANTADA",
            "OBSERVA____ES":"",
            "BAIRRO":"Amaralina"
         },
         "geometry":{
            "type":"Point",
            "coordinates":[
               -38.4783129,
               -13.0135489,
               0.0
            ]
         }
      },
      {
         "type":"Feature",
         "properties":{
            "Name":"45 - Jardim dos Namorados",
            "description":"NOME: Jardim dos Namorados<br>ENDEREÇO: Jardim dos Namorados, monumento<br>STATUS ESTAÇÃO: IMPLANTADA<br>OBSERVAÇÕES: <br>BAIRRO: Pituba<br>nome: ",
            "tessellate":-1,
            "extrude":0,
            "visibility":-1,
            "NOME":"",
            "ENDERE__O":"Jardim dos Namorados, monumento",
            "STATUS_ESTA____O":"IMPLANTADA",
            "OBSERVA____ES":"",
            "BAIRRO":"Pituba"
         },
         "geometry":{
            "type":"Point",
            "coordinates":[
               -38.4516861,
               -13.0026809,
               0.0
            ]
         }
      },
      {
         "type":"Feature",
         "properties":{
            "Name":"46 - UFBA Ondina Portão Principal",
            "description":"NOME: UFBA Ondina Portão Principal<br>ENDEREÇO: Av. Milton Santos (antiga Adhemar Barros), no canteiro central próximo a entrada da UFBA, oposto ao Zoológico<br>STATUS ESTAÇÃO: IMPLANTADA COM PAINEL<br>OBSERVAÇÕES: <br>BAIRRO: Ondina<br>nome: ",
            "tessellate":-1,
            "extrude":0,
            "visibility":-1,
            "NOME":"",
            "ENDERE__O":"Av. Milton Santos (antiga Adhemar Barros), no canteiro central próximo a entrada da UFBA, oposto ao Zoológico",
            "STATUS_ESTA____O":"IMPLANTADA COM PAINEL",
            "OBSERVA____ES":"",
            "BAIRRO":"Ondina"
         },
         "geometry":{
            "type":"Point",
            "coordinates":[
               -38.5091739,
               -13.006048,
               0.0
            ]
         }
      },
      {
         "type":"Feature",
         "properties":{
            "Name":"47 - Barris (Praça João Mangabeira)",
            "description":"NOME: Barris (Praça João Mangabeira)<br>ENDEREÇO: Praça João Mangabeira, oposto a Av. Vale do Tororó próximo às quadras<br>STATUS ESTAÇÃO: IMPLANTADA COM PAINEL<br>OBSERVAÇÕES: <br>BAIRRO: Barris<br>nome: ",
            "tessellate":-1,
            "extrude":0,
            "visibility":-1,
            "NOME":"",
            "ENDERE__O":"Praça João Mangabeira, oposto a Av. Vale do Tororó próximo às quadras",
            "STATUS_ESTA____O":"IMPLANTADA COM PAINEL",
            "OBSERVA____ES":"",
            "BAIRRO":"Barris"
         },
         "geometry":{
            "type":"Point",
            "coordinates":[
               -38.5124917,
               -12.9889832,
               0.0
            ]
         }
      },
      {
         "type":"Feature",
         "properties":{
            "Name":"48 - Magalhães Neto",
            "description":"NOME: Magalhães Neto<br>ENDEREÇO: Av. Prof. Magalhães Neto, próximo à esquina da R. Aristides Fraga Lima, em frente ao Teatro Módulo<br>STATUS ESTAÇÃO: IMPLANTADA<br>OBSERVAÇÕES: <br>BAIRRO: Pituba<br>nome: ",
            "tessellate":-1,
            "extrude":0,
            "visibility":-1,
            "NOME":"",
            "ENDERE__O":"Av. Prof. Magalhães Neto, próximo à esquina da R. Aristides Fraga Lima, em frente ao Teatro Módulo",
            "STATUS_ESTA____O":"IMPLANTADA",
            "OBSERVA____ES":"",
            "BAIRRO":"Pituba"
         },
         "geometry":{
            "type":"Point",
            "coordinates":[
               -38.4502348,
               -12.9901614,
               0.0
            ]
         }
      },
      {
         "type":"Feature",
         "properties":{
            "Name":"49 - Stella Mares",
            "description":"NOME: Stella Mares<br>ENDEREÇO: Avenida Beira Mar, Stella Mares<br>STATUS ESTAÇÃO: IMPLEMENTADA<br>OBSERVAÇÕES: REALOCAÇÃO PRAÇA STELLA MARIS<br>BAIRRO: Stella Mares<br>nome: ",
            "tessellate":-1,
            "extrude":0,
            "visibility":-1,
            "NOME":"",
            "ENDERE__O":"Avenida Beira Mar, Stella Mares",
            "STATUS_ESTA____O":"IMPLEMENTADA",
            "OBSERVA____ES":"REALOCAÇÃO PRAÇA STELLA MARIS",
            "BAIRRO":"Stella Mares"
         },
         "geometry":{
            "type":"Point",
            "coordinates":[
               -38.327016,
               -12.9364352,
               0.0
            ]
         }
      },
      {
         "type":"Feature",
         "properties":{
            "Name":"50 - Praça Stella Maris",
            "description":"NOME: Praça Stella Maris<br>ENDEREÇO: Na Praça de Stella Maris, Al. Praia de Guarapari / Esquina com Colégio Marízia Maior<br>STATUS ESTAÇÃO: IMPLANTADA<br>OBSERVAÇÕES: <br>BAIRRO: Stella Maris<br>nome: ",
            "tessellate":-1,
            "extrude":0,
            "visibility":-1,
            "NOME":"",
            "ENDERE__O":"Na Praça de Stella Maris, Al. Praia de Guarapari / Esquina com Colégio Marízia Maior",
            "STATUS_ESTA____O":"IMPLANTADA",
            "OBSERVA____ES":"",
            "BAIRRO":"Stella Maris"
         },
         "geometry":{
            "type":"Point",
            "coordinates":[
               -38.3399024,
               -12.9388568,
               0.0
            ]
         }
      },
      {
         "type":"Feature",
         "properties":{
            "Name":"51 - Jardim dos Namorados II",
            "description":"NOME: Jardim dos Namorados II<br>ENDEREÇO: -13.00003884271084, -38.447630361866146<br>Av. Octávio Mangabeira, número 240, Shopping Ateliê Place<br><br><br>STATUS ESTAÇÃO: IMPLANTADA PROVISÓRIA<br>OBSERVAÇÕES: IMPLANTADA PROVISÓRIA ENQUANTO DIQUE TORORÓ BLOQUEADA<br>BAIRRO: Pituba<br>nome: ",
            "tessellate":-1,
            "extrude":0,
            "visibility":-1,
            "NOME":"",
            "ENDERE__O":"-13.00003884271084, -38.447630361866146\nAv. Octávio Mangabeira, número 240, Shopping Ateliê Place\n\n",
            "STATUS_ESTA____O":"IMPLANTADA PROVISÓRIA",
            "OBSERVA____ES":"IMPLANTADA PROVISÓRIA ENQUANTO DIQUE TORORÓ BLOQUEADA",
            "BAIRRO":"Pituba"
         },
         "geometry":{
            "type":"Point",
            "coordinates":[
               -38.4496417,
               -13.0009715,
               0.0
            ]
         }
      },
      {
         "type":"Feature",
         "properties":{
            "Name":"52 - Campo Grande II",
            "description":"NOME: Campo Grande II<br>ENDEREÇO: Av. Sete de Setembro, oposto 1532 / Largo Campo Grande<br>STATUS ESTAÇÃO: IMPLANTADA COM PAINEL<br>OBSERVAÇÕES: <br>BAIRRO: Centro<br>nome: ",
            "tessellate":-1,
            "extrude":0,
            "visibility":-1,
            "NOME":"",
            "ENDERE__O":"Av. Sete de Setembro, oposto 1532 / Largo Campo Grande",
            "STATUS_ESTA____O":"IMPLANTADA COM PAINEL",
            "OBSERVA____ES":"",
            "BAIRRO":"Centro"
         },
         "geometry":{
            "type":"Point",
            "coordinates":[
               -38.5223134,
               -12.9882982,
               0.0
            ]
         }
      },
      {
         "type":"Feature",
         "properties":{
            "Name":"55 - Sabino Silva x Oceânica",
            "description":"NOME: Sabino Silva x Oceânica<br>ENDEREÇO: Rua Professor Sabino Silva, esquina com Av. Oceânica / em cima da praça no canteiro central<br>STATUS ESTAÇÃO: IMPLANTADA COM PAINEL<br>OBSERVAÇÕES: <br>BAIRRO: Ondina<br>nome: ",
            "tessellate":-1,
            "extrude":0,
            "visibility":-1,
            "NOME":"",
            "ENDERE__O":"Rua Professor Sabino Silva, esquina com Av. Oceânica / em cima da praça no canteiro central",
            "STATUS_ESTA____O":"IMPLANTADA COM PAINEL",
            "OBSERVA____ES":"",
            "BAIRRO":"Ondina"
         },
         "geometry":{
            "type":"Point",
            "coordinates":[
               -38.5162104,
               -13.0077114,
               0.0
            ]
         }
      },
      {
         "type":"Feature",
         "properties":{
            "Name":"56 - Anita Garibaldi",
            "description":"NOME: Anita Garibaldi<br>ENDEREÇO: Av. Anita Garibaldi,  n° 1211 <br>STATUS ESTAÇÃO: IMPLANTADA COM PAINEL<br>OBSERVAÇÕES: <br>BAIRRO: Federação<br>nome: ",
            "tessellate":-1,
            "extrude":0,
            "visibility":-1,
            "NOME":"",
            "ENDERE__O":"Av. Anita Garibaldi,  n° 1211 ",
            "STATUS_ESTA____O":"IMPLANTADA COM PAINEL",
            "OBSERVA____ES":"",
            "BAIRRO":"Federação"
         },
         "geometry":{
            "type":"Point",
            "coordinates":[
               -38.5060208,
               -12.9997116,
               0.0
            ]
         }
      },
      {
         "type":"Feature",
         "properties":{
            "Name":"57 - Pituba - Praça Belo Horizonte",
            "description":"NOME: Pituba - Praça Belo Horizonte<br>ENDEREÇO: Rua Amazonas, 942,  praça Belo Horizonte, pituba<br>STATUS ESTAÇÃO: IMPLANTADA COM PAINEL<br>OBSERVAÇÕES: <br>BAIRRO: Pituba<br>nome: ",
            "tessellate":-1,
            "extrude":0,
            "visibility":-1,
            "NOME":"",
            "ENDERE__O":"Rua Amazonas, 942,  praça Belo Horizonte, pituba",
            "STATUS_ESTA____O":"IMPLANTADA COM PAINEL",
            "OBSERVA____ES":"",
            "BAIRRO":"Pituba"
         },
         "geometry":{
            "type":"Point",
            "coordinates":[
               -38.4590545,
               -13.00399,
               0.0
            ]
         }
      },
      {
         "type":"Feature",
         "properties":{
            "Name":"58 - BRT Pituba",
            "description":"NOME: BRT Pituba<br>ENDEREÇO: Av. Antônio Carlos Magalhães, 148, Estação BRT Pituba<br>STATUS ESTAÇÃO: IMPLANTADA COM PAINEL<br>OBSERVAÇÕES: <br>BAIRRO: Pituba<br>nome: ",
            "tessellate":-1,
            "extrude":0,
            "visibility":-1,
            "NOME":"",
            "ENDERE__O":"Av. Antônio Carlos Magalhães, 148, Estação BRT Pituba",
            "STATUS_ESTA____O":"IMPLANTADA COM PAINEL",
            "OBSERVA____ES":"",
            "BAIRRO":"Pituba"
         },
         "geometry":{
            "type":"Point",
            "coordinates":[
               -38.4594358,
               -12.9997604,
               0.0
            ]
         }
      },
      {
         "type":"Feature",
         "properties":{
            "Name":"59 - BRT Itaigara",
            "description":"NOME: BRT Itaigara<br>ENDEREÇO: Av. Antônio Carlos Magalhães, 598, Shopping Itaigara<br>STATUS ESTAÇÃO: IMPLANTADA COM PAINEL<br>OBSERVAÇÕES: <br>BAIRRO: Pituba<br>nome: ",
            "tessellate":-1,
            "extrude":0,
            "visibility":-1,
            "NOME":"",
            "ENDERE__O":"Av. Antônio Carlos Magalhães, 598, Shopping Itaigara",
            "STATUS_ESTA____O":"IMPLANTADA COM PAINEL",
            "OBSERVA____ES":"",
            "BAIRRO":"Pituba"
         },
         "geometry":{
            "type":"Point",
            "coordinates":[
               -38.4636746,
               -12.9972444,
               0.0
            ]
         }
      },
      {
         "type":"Feature",
         "properties":{
            "Name":"60 - Armação",
            "description":"NOME: Armação<br>ENDEREÇO: Av. Octávio Mangabeira, 4435,<br>-12.989288575947743, -38.43532964666725<br><br>STATUS ESTAÇÃO: IMPLANTADA<br>OBSERVAÇÕES: <br>BAIRRO: Jardim Armação<br>nome: ",
            "tessellate":-1,
            "extrude":0,
            "visibility":-1,
            "NOME":"",
            "ENDERE__O":"Av. Octávio Mangabeira, 4435,\n-12.989288575947743, -38.43532964666725\n",
            "STATUS_ESTA____O":"IMPLANTADA",
            "OBSERVA____ES":"",
            "BAIRRO":"Jardim Armação"
         },
         "geometry":{
            "type":"Point",
            "coordinates":[
               -38.4367817,
               -12.9897849,
               0.0
            ]
         }
      },
      {
         "type":"Feature",
         "properties":{
            "Name":"61 - Salvador Shopping",
            "description":"NOME: Salvador Shopping<br>ENDEREÇO: Alameda Salvador, 546 / oposto a entrada de pedestres do Salvador Shopping. Próximo a passarela.<br>STATUS ESTAÇÃO: IMPLANTADA COM PAINEL<br>OBSERVAÇÕES: <br>BAIRRO: Caminho das Árvores<br>nome: ",
            "tessellate":-1,
            "extrude":0,
            "visibility":-1,
            "NOME":"",
            "ENDERE__O":"Alameda Salvador, 546 / oposto a entrada de pedestres do Salvador Shopping. Próximo a passarela.",
            "STATUS_ESTA____O":"IMPLANTADA COM PAINEL",
            "OBSERVA____ES":"",
            "BAIRRO":"Caminho das Árvores"
         },
         "geometry":{
            "type":"Point",
            "coordinates":[
               -38.4550451,
               -12.9793593,
               0.0
            ]
         }
      },
      {
         "type":"Feature",
         "properties":{
            "Name":"62 - Praça Castro Alves",
            "description":"NOME: Praça Castro Alves<br>ENDEREÇO: Praça Castro Alves,  Teatro Glauber Rocha <br>STATUS ESTAÇÃO: IMPLANTADA<br>OBSERVAÇÕES: <br>BAIRRO: Centro<br>nome: ",
            "tessellate":-1,
            "extrude":0,
            "visibility":-1,
            "NOME":"",
            "ENDERE__O":"Praça Castro Alves,  Teatro Glauber Rocha ",
            "STATUS_ESTA____O":"IMPLANTADA",
            "OBSERVA____ES":"",
            "BAIRRO":"Centro"
         },
         "geometry":{
            "type":"Point",
            "coordinates":[
               -38.5146109,
               -12.9775372,
               0.0
            ]
         }
      },
      {
         "type":"Feature",
         "properties":{
            "Name":"65 - Farol da Barra\n",
            "description":"NOME: Farol da Barra<br>ENDEREÇO: Av. Sete de Setembro, próximo do n° 4183, após faixa de pedestres, alinhada ao poste<br>STATUS ESTAÇÃO: EM PROJETO<br>OBSERVAÇÕES: NOVA ESTAÇÃO<br>BAIRRO: Barra<br>nome: ",
            "tessellate":-1,
            "extrude":0,
            "visibility":-1,
            "NOME":"",
            "ENDERE__O":"Av. Sete de Setembro, próximo do n° 4183, após faixa de pedestres, alinhada ao poste",
            "STATUS_ESTA____O":"EM PROJETO",
            "OBSERVA____ES":"NOVA ESTAÇÃO",
            "BAIRRO":"Barra"
         },
         "geometry":{
            "type":"Point",
            "coordinates":[
               -38.5327964,
               -13.0071492,
               0.0
            ]
         }
      },
      {
         "type":"Feature",
         "properties":{
            "Name":"54 - Praça do Imbuí",
            "description":"NOME: Praça do Imbuí<br>ENDEREÇO: Praça do Imbuí, na Av. Jorge Amado. No grama junto ao semáforo e bifurcação com a Rua Alberto Fiúsa<br>STATUS ESTAÇÃO: EM PROJETO<br>OBSERVAÇÕES: NOVA ESTAÇÃO<br>BAIRRO: Imbuí<br>nome: ",
            "tessellate":-1,
            "extrude":0,
            "visibility":-1,
            "NOME":"",
            "ENDERE__O":"Praça do Imbuí, na Av. Jorge Amado. No grama junto ao semáforo e bifurcação com a Rua Alberto Fiúsa",
            "STATUS_ESTA____O":"EM PROJETO",
            "OBSERVA____ES":"NOVA ESTAÇÃO",
            "BAIRRO":"Imbuí"
         },
         "geometry":{
            "type":"Point",
            "coordinates":[
               -38.4350129,
               -12.9691258,
               0.0
            ]
         }
      },
      {
         "type":"Feature",
         "properties":{
            "Name":"63 - Paróquia de Santana",
            "description":"NOME: Paróquia de Santana<br>ENDEREÇO: R. Guedes Cabral, 169<br>STATUS ESTAÇÃO: EM PROJETO<br>OBSERVAÇÕES: NOVA ESTAÇÃO<br>BAIRRO: Rio Vermelho<br>nome: ",
            "tessellate":-1,
            "extrude":0,
            "visibility":-1,
            "NOME":"",
            "ENDERE__O":"R. Guedes Cabral, 169",
            "STATUS_ESTA____O":"EM PROJETO",
            "OBSERVA____ES":"NOVA ESTAÇÃO",
            "BAIRRO":"Rio Vermelho"
         },
         "geometry":{
            "type":"Point",
            "coordinates":[
               -38.4913059,
               -13.0130044,
               0.0
            ]
         }
      },
      {
         "type":"Feature",
         "properties":{
            "Name":"64 - Oswaldo Cruz",
            "description":"NOME: Oswaldo Cruz<br>ENDEREÇO: Rua Oswaldo Cruz, 689, Super Bompreço<br>STATUS ESTAÇÃO: EM PROJETO<br>OBSERVAÇÕES: NOVA ESTAÇÃO<br>BAIRRO: Rio Vermelho<br>nome: ",
            "tessellate":-1,
            "extrude":0,
            "visibility":-1,
            "NOME":"",
            "ENDERE__O":"Rua Oswaldo Cruz, 689, Super Bompreço",
            "STATUS_ESTA____O":"EM PROJETO",
            "OBSERVA____ES":"NOVA ESTAÇÃO",
            "BAIRRO":"Rio Vermelho"
         },
         "geometry":{
            "type":"Point",
            "coordinates":[
               -38.4821282,
               -13.012305,
               0.0
            ]
         }
      },
      {
         "type":"Feature",
         "properties":{
            "Name":"53 - Metrô Imbui",
            "description":"NOME: Metrô Imbui<br>ENDEREÇO: Rua Padre Casimiro Quiroga, próximo ao fórum regional. Alinhado antes da faixa de pedestre;<br>STATUS ESTAÇÃO: EM PROJETO<br>OBSERVAÇÕES: NOVA ESTAÇÃO<br>BAIRRO: Imbuí<br>nome: ",
            "tessellate":-1,
            "extrude":0,
            "visibility":-1,
            "NOME":"",
            "ENDERE__O":"Rua Padre Casimiro Quiroga, próximo ao fórum regional. Alinhado antes da faixa de pedestre;",
            "STATUS_ESTA____O":"EM PROJETO",
            "OBSERVA____ES":"NOVA ESTAÇÃO",
            "BAIRRO":"Imbuí"
         },
         "geometry":{
            "type":"Point",
            "coordinates":[
               -38.4359985,
               -12.9654454,
               0.0
            ]
         }
      },
      {
         "type":"Feature",
         "properties":{
            "Name":"66 - BRT HGE",
            "description":"NOME: BRT HGE<br>ENDEREÇO: Av. Vasco da Gama x Ladeiro do Hospital Geral<br><br>STATUS ESTAÇÃO: EM PROJETO<br>OBSERVAÇÕES: NOVA ESTAÇÃO<br>BAIRRO: Horto Florestal<br>nome: ",
            "tessellate":-1,
            "extrude":0,
            "visibility":-1,
            "NOME":"",
            "ENDERE__O":"Av. Vasco da Gama x Ladeiro do Hospital Geral\n",
            "STATUS_ESTA____O":"EM PROJETO",
            "OBSERVA____ES":"NOVA ESTAÇÃO",
            "BAIRRO":"Horto Florestal"
         },
         "geometry":{
            "type":"Point",
            "coordinates":[
               -38.492587,
               -12.9971733,
               0.0
            ]
         }
      },
      {
         "type":"Feature",
         "properties":{
            "Name":"67 - BRT Ogunjá",
            "description":"NOME: BRT Ogunjá<br>ENDEREÇO: Av. Vasco da Gama, 3051<br>STATUS ESTAÇÃO: EM PROJETO<br>OBSERVAÇÕES: NOVA ESTAÇÃO<br>BAIRRO: rio vermelho<br>nome: ",
            "tessellate":-1,
            "extrude":0,
            "visibility":-1,
            "NOME":"",
            "ENDERE__O":"Av. Vasco da Gama, 3051",
            "STATUS_ESTA____O":"EM PROJETO",
            "OBSERVA____ES":"NOVA ESTAÇÃO",
            "BAIRRO":"rio vermelho"
         },
         "geometry":{
            "type":"Point",
            "coordinates":[
               -38.4985902,
               -12.9931466,
               0.0
            ]
         }
      },
      {
         "type":"Feature",
         "properties":{
            "Name":"Linha BRT",
            "description":"NOME: <br>ENDEREÇO: <br>STATUS ESTAÇÃO: <br>OBSERVAÇÕES: <br>BAIRRO: <br>nome: ",
            "tessellate":1,
            "extrude":0,
            "visibility":-1,
            "NOME":"",
            "ENDERE__O":"",
            "STATUS_ESTA____O":"",
            "OBSERVA____ES":"",
            "BAIRRO":""
         },
         "geometry":{
            "type":"LineString",
            "coordinates":[
               [
                  -38.4638326,
                  -12.9791474,
                  0.0
               ],
               [
                  -38.4655975,
                  -12.9801981,
                  0.0
               ],
               [
                  -38.4659999,
                  -12.980815,
                  0.0
               ],
               [
                  -38.4660387,
                  -12.9816607,
                  0.0
               ],
               [
                  -38.4668644,
                  -12.9836304,
                  0.0
               ],
               [
                  -38.4671447,
                  -12.9869131,
                  0.0
               ],
               [
                  -38.4672976,
                  -12.9873196,
                  0.0
               ],
               [
                  -38.4675578,
                  -12.987658,
                  0.0
               ],
               [
                  -38.4679226,
                  -12.9879057,
                  0.0
               ],
               [
                  -38.4699986,
                  -12.9887479,
                  0.0
               ],
               [
                  -38.4711888,
                  -12.9890034,
                  0.0
               ],
               [
                  -38.4720062,
                  -12.9891484,
                  0.0
               ],
               [
                  -38.4724273,
                  -12.9892771,
                  0.0
               ],
               [
                  -38.4726936,
                  -12.9894444,
                  0.0
               ],
               [
                  -38.4751759,
                  -12.9918998,
                  0.0
               ],
               [
                  -38.4754874,
                  -12.9923752,
                  0.0
               ],
               [
                  -38.4756913,
                  -12.9930442,
                  0.0
               ],
               [
                  -38.4756866,
                  -12.9938659,
                  0.0
               ],
               [
                  -38.4756222,
                  -12.9943625,
                  0.0
               ],
               [
                  -38.4753754,
                  -12.9949531,
                  0.0
               ],
               [
                  -38.4749999,
                  -12.9953399,
                  0.0
               ],
               [
                  -38.4745306,
                  -12.9956196,
                  0.0
               ],
               [
                  -38.4726986,
                  -12.9960116,
                  0.0
               ],
               [
                  -38.4720388,
                  -12.9961188,
                  0.0
               ],
               [
                  -38.4694504,
                  -12.9962991,
                  0.0
               ],
               [
                  -38.4670271,
                  -12.9964402,
                  0.0
               ],
               [
                  -38.46611,
                  -12.9965981,
                  0.0
               ],
               [
                  -38.4641748,
                  -12.9971835,
                  0.0
               ],
               [
                  -38.4638905,
                  -12.9972789,
                  0.0
               ],
               [
                  -38.4611909,
                  -12.9990117,
                  0.0
               ],
               [
                  -38.4605011,
                  -12.9994993,
                  0.0
               ],
               [
                  -38.4600666,
                  -13.0000246,
                  0.0
               ],
               [
                  -38.4599701,
                  -13.0001526,
                  0.0
               ],
               [
                  -38.459836,
                  -13.0003931,
                  0.0
               ],
               [
                  -38.4595127,
                  -13.001342,
                  0.0
               ],
               [
                  -38.4590651,
                  -13.0033856,
                  0.0
               ],
               [
                  -38.4587365,
                  -13.0048478,
                  0.0
               ],
               [
                  -38.4584805,
                  -13.0061491,
                  0.0
               ],
               [
                  -38.4584615,
                  -13.0061848,
                  0.0
               ],
               [
                  -38.4575871,
                  -13.0060019,
                  0.0
               ],
               [
                  -38.4575093,
                  -13.0059104,
                  0.0
               ],
               [
                  -38.4576246,
                  -13.0053172,
                  0.0
               ],
               [
                  -38.4579029,
                  -13.0041006,
                  0.0
               ],
               [
                  -38.4582959,
                  -13.0020373,
                  0.0
               ],
               [
                  -38.4585567,
                  -13.0014532,
                  0.0
               ],
               [
                  -38.459014,
                  -13.0005496,
                  0.0
               ],
               [
                  -38.4593989,
                  -13.0000557,
                  0.0
               ],
               [
                  -38.4601164,
                  -12.9995317,
                  0.0
               ]
            ]
         }
      },
      {
         "type":"Feature",
         "properties":{
            "Name":"Linha BRT Trecho 2",
            "description":"NOME: <br>ENDEREÇO: <br>STATUS ESTAÇÃO: <br>OBSERVAÇÕES: <br>BAIRRO: <br>nome: Linha BRT Trecho 2",
            "tessellate":1,
            "extrude":0,
            "visibility":-1,
            "NOME":"Linha BRT Trecho 2",
            "ENDERE__O":"",
            "STATUS_ESTA____O":"",
            "OBSERVA____ES":"",
            "BAIRRO":""
         },
         "geometry":{
            "type":"LineString",
            "coordinates":[
               [
                  -38.4753096,
                  -12.9951164,
                  0.0
               ],
               [
                  -38.4772407,
                  -12.9964023,
                  0.0
               ],
               [
                  -38.4783136,
                  -12.9971654,
                  0.0
               ],
               [
                  -38.4799381,
                  -12.9994589,
                  0.0
               ],
               [
                  -38.4824008,
                  -13.0003532,
                  0.0
               ],
               [
                  -38.4830231,
                  -13.0013359,
                  0.0
               ],
               [
                  -38.4829373,
                  -13.0028622,
                  0.0
               ],
               [
                  -38.4831519,
                  -13.0035312,
                  0.0
               ],
               [
                  -38.4845469,
                  -13.005164,
                  0.0
               ],
               [
                  -38.4852764,
                  -13.0055403,
                  0.0
               ],
               [
                  -38.4864351,
                  -13.0054567,
                  0.0
               ],
               [
                  -38.4872505,
                  -13.0059585,
                  0.0
               ],
               [
                  -38.4877655,
                  -13.0063766,
                  0.0
               ],
               [
                  -38.4885809,
                  -13.0063766,
                  0.0
               ],
               [
                  -38.4893534,
                  -13.0061884,
                  0.0
               ],
               [
                  -38.4922473,
                  -13.0073912,
                  0.0
               ],
               [
                  -38.4925617,
                  -13.0073954,
                  0.0
               ],
               [
                  -38.4927045,
                  -13.007086,
                  0.0
               ],
               [
                  -38.492447,
                  -13.0060093,
                  0.0
               ],
               [
                  -38.4922002,
                  -13.0049535,
                  0.0
               ],
               [
                  -38.4921037,
                  -13.0041486,
                  0.0
               ],
               [
                  -38.4920857,
                  -13.001512,
                  0.0
               ],
               [
                  -38.4920428,
                  -13.0006966,
                  0.0
               ],
               [
                  -38.4919033,
                  -12.9995728,
                  0.0
               ],
               [
                  -38.49237,
                  -12.9978217,
                  0.0
               ],
               [
                  -38.492708,
                  -12.9973095,
                  0.0
               ],
               [
                  -38.4946821,
                  -12.9963686,
                  0.0
               ],
               [
                  -38.4959316,
                  -12.9957932,
                  0.0
               ],
               [
                  -38.4963205,
                  -12.9955371,
                  0.0
               ],
               [
                  -38.4966021,
                  -12.9952496,
                  0.0
               ],
               [
                  -38.4974175,
                  -12.9944656,
                  0.0
               ],
               [
                  -38.4982689,
                  -12.9937121,
                  0.0
               ],
               [
                  -38.499249,
                  -12.9929586,
                  0.0
               ],
               [
                  -38.4994904,
                  -12.9928436,
                  0.0
               ],
               [
                  -38.4999035,
                  -12.9927861,
                  0.0
               ],
               [
                  -38.5006867,
                  -12.9928332,
                  0.0
               ],
               [
                  -38.5010407,
                  -12.9927548,
                  0.0
               ],
               [
                  -38.5014001,
                  -12.9925927,
                  0.0
               ],
               [
                  -38.5018025,
                  -12.9919968,
                  0.0
               ],
               [
                  -38.5022316,
                  -12.991171,
                  0.0
               ],
               [
                  -38.502929,
                  -12.9906901,
                  0.0
               ],
               [
                  -38.505704,
                  -12.9899974,
                  0.0
               ],
               [
                  -38.5066266,
                  -12.989642,
                  0.0
               ],
               [
                  -38.507206,
                  -12.9890356,
                  0.0
               ],
               [
                  -38.5078712,
                  -12.9887847,
                  0.0
               ],
               [
                  -38.5087509,
                  -12.9891611,
                  0.0
               ],
               [
                  -38.5097132,
                  -12.9893707,
                  0.0
               ],
               [
                  -38.5107734,
                  -12.9891933,
                  0.0
               ],
               [
                  -38.5109692,
                  -12.989141,
                  0.0
               ],
               [
                  -38.5111435,
                  -12.9889006,
                  0.0
               ],
               [
                  -38.5113527,
                  -12.9885399,
                  0.0
               ],
               [
                  -38.51146,
                  -12.988289,
                  0.0
               ],
               [
                  -38.51157,
                  -12.9878944,
                  0.0
               ],
               [
                  -38.5113474,
                  -12.9875389,
                  0.0
               ],
               [
                  -38.5109719,
                  -12.9867548,
                  0.0
               ],
               [
                  -38.5107197,
                  -12.9859342,
                  0.0
               ],
               [
                  -38.5105642,
                  -12.9854232,
                  0.0
               ],
               [
                  -38.5104971,
                  -12.9851468,
                  0.0
               ],
               [
                  -38.5104488,
                  -12.9848338,
                  0.0
               ],
               [
                  -38.5104837,
                  -12.9844758,
                  0.0
               ],
               [
                  -38.5105427,
                  -12.9843001,
                  0.0
               ],
               [
                  -38.5106554,
                  -12.9841348,
                  0.0
               ],
               [
                  -38.5115352,
                  -12.9833403,
                  0.0
               ]
            ]
         }
      },
      {
         "type":"Feature",
         "properties":{
            "Name":"Linha BRT",
            "description":"NOME: <br>ENDEREÇO: <br>STATUS ESTAÇÃO: <br>OBSERVAÇÕES: <br>BAIRRO: <br>nome: ",
            "tessellate":1,
            "extrude":0,
            "visibility":-1,
            "NOME":"",
            "ENDERE__O":"",
            "STATUS_ESTA____O":"",
            "OBSERVA____ES":"",
            "BAIRRO":""
         },
         "geometry":{
            "type":"LineString",
            "coordinates":[
               [
                  -38.4600958,
                  -12.9994957,
                  0.0
               ],
               [
                  -38.4601306,
                  -12.9995323,
                  0.0
               ],
               [
                  -38.4594064,
                  -13.0000655,
                  0.0
               ],
               [
                  -38.4590282,
                  -13.0005359,
                  0.0
               ],
               [
                  -38.4585642,
                  -13.0014402,
                  0.0
               ],
               [
                  -38.4548359,
                  -13.0006431,
                  0.0
               ],
               [
                  -38.4548118,
                  -12.9985863,
                  0.0
               ],
               [
                  -38.4546804,
                  -12.991075,
                  0.0
               ],
               [
                  -38.4547367,
                  -12.9907352,
                  0.0
               ],
               [
                  -38.4547124,
                  -12.9900415,
                  0.0
               ],
               [
                  -38.4552622,
                  -12.9895893,
                  0.0
               ],
               [
                  -38.4574835,
                  -12.98759,
                  0.0
               ],
               [
                  -38.4575237,
                  -12.9867118,
                  0.0
               ],
               [
                  -38.4575532,
                  -12.9848509,
                  0.0
               ],
               [
                  -38.4576632,
                  -12.9844379,
                  0.0
               ],
               [
                  -38.4580682,
                  -12.9838682,
                  0.0
               ],
               [
                  -38.4587173,
                  -12.9830344,
                  0.0
               ],
               [
                  -38.458492,
                  -12.9803946,
                  0.0
               ],
               [
                  -38.4584651,
                  -12.9792603,
                  0.0
               ],
               [
                  -38.4585563,
                  -12.9790329,
                  0.0
               ],
               [
                  -38.4587897,
                  -12.9786748,
                  0.0
               ],
               [
                  -38.4596909,
                  -12.9783063,
                  0.0
               ],
               [
                  -38.4609569,
                  -12.9781887,
                  0.0
               ],
               [
                  -38.4622417,
                  -12.9783978,
                  0.0
               ],
               [
                  -38.4633253,
                  -12.9792629,
                  0.0
               ]
            ]
         }
      },
      {
         "type":"Feature",
         "properties":{
            "Name":"BRT Rio Vermelho (Opção 1)",
            "description":"NOME: Estação BRT Rio Vermelho<br>ENDEREÇO: <br>STATUS ESTAÇÃO: <br>OBSERVAÇÕES: Av. Pres. Costa e Silva/Av. Vasco da Gama, ao lado do Parquinho Dique Tororó.<br>BAIRRO: <br>nome: ",
            "visibility":-1,
            "NOME":"",
            "ENDERE__O":"",
            "STATUS_ESTA____O":"",
            "OBSERVA____ES":"Av. Pres. Costa e Silva/Av. Vasco da Gama, ao lado do Parquinho Dique Tororó.",
            "BAIRRO":""
         },
         "geometry":null
      },
      {
         "type":"Feature",
         "properties":{
            "Name":"BRT Rio Vermelho (Opção 2)",
            "description":"NOME: <br>ENDEREÇO: <br>STATUS ESTAÇÃO: <br>OBSERVAÇÕES: <br>BAIRRO: <br>nome: ",
            "visibility":-1,
            "NOME":"",
            "ENDERE__O":"",
            "STATUS_ESTA____O":"",
            "OBSERVA____ES":"",
            "BAIRRO":""
         },
         "geometry":null
      },
      {
         "type":"Feature",
         "properties":{
            "Name":"BRT Rio Vermelho (Opção 2)",
            "description":"NOME: <br>ENDEREÇO: <br>STATUS ESTAÇÃO: <br>OBSERVAÇÕES: <br>BAIRRO: <br>nome: ",
            "tessellate":-1,
            "extrude":0,
            "visibility":-1,
            "NOME":"",
            "ENDERE__O":"",
            "STATUS_ESTA____O":"",
            "OBSERVA____ES":"",
            "BAIRRO":""
         },
         "geometry":{
            "type":"Point",
            "coordinates":[
               -38.4921875,
               -13.0048125,
               0.0
            ]
         }
      },
      {
         "type":"Feature",
         "properties":{
            "Name":"BRT Rio Vermelho (Opção 3)",
            "description":"NOME: <br>ENDEREÇO: <br>STATUS ESTAÇÃO: <br>OBSERVAÇÕES: <br>BAIRRO: <br>nome: ",
            "tessellate":-1,
            "extrude":0,
            "visibility":-1,
            "NOME":"",
            "ENDERE__O":"",
            "STATUS_ESTA____O":"",
            "OBSERVA____ES":"",
            "BAIRRO":""
         },
         "geometry":{
            "type":"Point",
            "coordinates":[
               -38.4837344,
               -13.0045625,
               0.0
            ]
         }
      },
      {
         "type":"Feature",
         "properties":{
            "Name":"BRT Pedrinhas",
            "description":"NOME: <br>ENDEREÇO: <br>STATUS ESTAÇÃO: <br>OBSERVAÇÕES: <br>BAIRRO: <br>nome: ",
            "tessellate":-1,
            "extrude":0,
            "visibility":-1,
            "NOME":"",
            "ENDERE__O":"",
            "STATUS_ESTA____O":"",
            "OBSERVA____ES":"",
            "BAIRRO":""
         },
         "geometry":{
            "type":"Point",
            "coordinates":[
               -38.4835625,
               -13.0041875,
               0.0
            ]
         }
      },
      {
         "type":"Feature",
         "properties":{
            "Name":"Dique do Tororó",
            "description":"NOME: <br>ENDEREÇO: <br>STATUS ESTAÇÃO: <br>OBSERVAÇÕES: <br>BAIRRO: <br>nome: ",
            "tessellate":-1,
            "extrude":0,
            "visibility":-1,
            "NOME":"",
            "ENDERE__O":"",
            "STATUS_ESTA____O":"",
            "OBSERVA____ES":"",
            "BAIRRO":""
         },
         "geometry":{
            "type":"Point",
            "coordinates":[
               -38.5048125,
               -12.9811875,
               0.0
            ]
         }
      },
      {
         "type":"Feature",
         "properties":{
            "Name":"Marquês de Caravelas",
            "description":"NOME: <br>ENDEREÇO: <br>STATUS ESTAÇÃO: <br>OBSERVAÇÕES: <br>BAIRRO: <br>nome: ",
            "tessellate":-1,
            "extrude":0,
            "visibility":-1,
            "NOME":"",
            "ENDERE__O":"",
            "STATUS_ESTA____O":"",
            "OBSERVA____ES":"",
            "BAIRRO":""
         },
         "geometry":{
            "type":"Point",
            "coordinates":[
               -38.5266971,
               -13.0065906,
               0.0
            ]
         }
      },
      {
         "type":"Feature",
         "properties":{
            "Name":"RUA Frederico Simões",
            "description":"NOME: <br>ENDEREÇO: RUA Frederico Simões, 160 - Caminho das Árvores<br>STATUS ESTAÇÃO: <br>OBSERVAÇÕES: <br>BAIRRO: CAMINHO DAS ARVORES<br>nome: ",
            "tessellate":-1,
            "extrude":0,
            "visibility":-1,
            "NOME":"",
            "ENDERE__O":"RUA Frederico Simões, 160 - Caminho das Árvores",
            "STATUS_ESTA____O":"",
            "OBSERVA____ES":"",
            "BAIRRO":"CAMINHO DAS ARVORES"
         },
         "geometry":{
            "type":"Point",
            "coordinates":[
               -38.4536744,
               -12.981206,
               0.0
            ]
         }
      }
   ]
}